{"type":"FeatureCollection","features":[{"type":"Feature","id":"node/627831986","properties":{"type":"node","id":627831986,"tags":{"addr:housenumber":"34","addr:street":"Via Piero Colletta","craft":"shoemaker"},"relations":[],"meta":{}},"geometry":{"type":"Point","coordinates":[11.1074787,43.8816989]}},{"type":"Feature","id":"node/1911791766","properties":{"type":"node","id":1911791766,"tags":{"addr:city":"Prato","addr:housenumber":"21","addr:postcode":"59100","addr:street":"Via delle Pleiadi","craft":"pottery","name":"Titti Ceramiche","note":"#artigianoinbottega","shop":"pottery"},"relations":[],"meta":{}},"geometry":{"type":"Point","coordinates":[11.0654409,43.8739019]}},{"type":"Feature","id":"node/3183793345","properties":{"type":"node","id":3183793345,"tags":{"craft":"photographer"},"relations":[],"meta":{}},"geometry":{"type":"Point","coordinates":[11.0552877,43.8719579]}},{"type":"Feature","id":"node/3197815885","properties":{"type":"node","id":3197815885,"tags":{"addr:city":"Prato","addr:housenumber":"7","addr:postcode":"59100","addr:street":"Via Santa Margherita","craft":"carpenter","name":"Falegnameria Artigiana Brizzi Osvaldo","note":"#pratoartigianoinbottega"},"relations":[],"meta":{}},"geometry":{"type":"Point","coordinates":[11.0990164,43.8826032]}},{"type":"Feature","id":"node/3198272218","properties":{"type":"node","id":3198272218,"tags":{"addr:city":"Prato","addr:housenumber":"28","addr:postcode":"59100","addr:street":"Via Benedetto Cairoli","craft":"jeweller","name":"NÃ¨mesi Gioielli","note":"#artigianoinbottega"},"relations":[],"meta":{}},"geometry":{"type":"Point","coordinates":[11.0979012,43.8801062]}},{"type":"Feature","id":"node/3198293608","properties":{"type":"node","id":3198293608,"tags":{"addr:city":"Pratp","addr:housenumber":"64","addr:postcode":"59100","addr:street":"Via 20 Settembre","craft":"carpenter","name":"Corsi Luigi - Falegnameria","note":"#artigianoinbottega"},"relations":[],"meta":{}},"geometry":{"type":"Point","coordinates":[11.0377255,43.8643767]}},{"type":"Feature","id":"node/3198298225","properties":{"type":"node","id":3198298225,"tags":{"addr:city":"Prato","addr:housenumber":"78","addr:postcode":"59100","addr:street":"Via Pomeria","craft":"glaziery","name":"Neon Prato","note":"#artigianoinbottega"},"relations":[],"meta":{}},"geometry":{"type":"Point","coordinates":[11.098877,43.8761161]}},{"type":"Feature","id":"node/3198301110","properties":{"type":"node","id":3198301110,"tags":{"addr:city":"Prato","addr:housenumber":"64","addr:postcode":"59100","addr:street":"Via dei Caselli","craft":"shoemaker","name":"Daje de Tacco","note":"#artigianoinbottega"},"relations":[],"meta":{}},"geometry":{"type":"Point","coordinates":[11.1164031,43.8580233]}},{"type":"Feature","id":"node/3198305414","properties":{"type":"node","id":3198305414,"tags":{"addr:city":"Prato","addr:housenumber":"107","addr:postcode":"59100","addr:street":"Via Filippo Strozzi","craft":"upholsterer","name":"One Decor","note":"#artigianoinbottega"},"relations":[],"meta":{}},"geometry":{"type":"Point","coordinates":[11.0917367,43.8872454]}},{"type":"Feature","id":"node/3198315549","properties":{"type":"node","id":3198315549,"tags":{"addr:city":"Prato","addr:housenumber":"65","addr:postcode":"59100","addr:street":"Via Santa Trinita","craft":"jeweller","name":"Oro Etrusco","note":"#artigianoinbottega"},"relations":[],"meta":{}},"geometry":{"type":"Point","coordinates":[11.0946645,43.8776]}},{"type":"Feature","id":"node/3198330593","properties":{"type":"node","id":3198330593,"tags":{"addr:city":"Prato","addr:housenumber":"30","addr:postcode":"59100","addr:street":"Via delle Fonti","craft":"electrician","name":"Paralumi e Lumi","note":"#artigianoinbottega"},"relations":[],"meta":{}},"geometry":{"type":"Point","coordinates":[11.1094379,43.868175]}},{"type":"Feature","id":"node/3198341630","properties":{"type":"node","id":3198341630,"tags":{"addr:city":"Prato","addr:housenumber":"44","addr:postcode":"59100","addr:street":"Via Val d'Aosta","craft":"carpenter","name":"Passarino e Sadotti","note":"#artigianoinbottega"},"relations":[],"meta":{}},"geometry":{"type":"Point","coordinates":[11.0506952,43.8585379]}},{"type":"Feature","id":"node/3198348849","properties":{"type":"node","id":3198348849,"tags":{"addr:city":"Prato","addr:housenumber":"64","addr:postcode":"59100","addr:street":"Via Marco Roncioni","craft":"carpenter","name":"Prato Cornici e arte, di Potito Angela e Cellai Gianni","note":"#artigianoinbottega"},"relations":[],"meta":{}},"geometry":{"type":"Point","coordinates":[11.0886027,43.8741065]}},{"type":"Feature","id":"node/3198354404","properties":{"type":"node","id":3198354404,"tags":{"addr:city":"Prato","addr:housenumber":"42","addr:postcode":"59100","addr:street":"Via Ettore Sambo","craft":"sculptor","name":"Prato Marmi","note":"#artigianoinbottega"},"relations":[],"meta":{}},"geometry":{"type":"Point","coordinates":[11.0819073,43.9033676]}},{"type":"Feature","id":"node/3198365264","properties":{"type":"node","id":3198365264,"tags":{"addr:city":"Prato","addr:housenumber":"41","addr:postcode":"59100","addr:street":"Via di Casale","craft":"tailor","name":"Ricami Sabrina Snc","note":"#artigianoinbottega"},"relations":[],"meta":{}},"geometry":{"type":"Point","coordinates":[11.0522255,43.8711076]}},{"type":"Feature","id":"node/3198392015","properties":{"type":"node","id":3198392015,"tags":{"addr:city":"Prato","addr:housenumber":"8","addr:postcode":"59100","addr:street":"Via del Serraglio","craft":"dressmaker","name":"Sartoria Melisa","note":"#artigianoinbottega"},"relations":[],"meta":{}},"geometry":{"type":"Point","coordinates":[11.0971144,43.8831157]}},{"type":"Feature","id":"node/3198608054","properties":{"type":"node","id":3198608054,"tags":{"addr:city":"Prato","addr:housenumber":"35","addr:postcode":"59100","addr:street":"Via Guido De Ruggiero","craft":"dressmaker","name":"Sciarpe GER","note":"#artigianoinbottega"},"relations":[],"meta":{}},"geometry":{"type":"Point","coordinates":[11.0664766,43.8633089]}},{"type":"Feature","id":"node/3198614442","properties":{"type":"node","id":3198614442,"tags":{"addr:city":"Prato","addr:housenumber":"22","addr:postcode":"59100","addr:street":"Via Adolfo Toccafondi","craft":"carpenter","name":"Smap Arredamenti","note":"#artiginanoinbottega"},"relations":[],"meta":{}},"geometry":{"type":"Point","coordinates":[11.0880313,43.8884375]}},{"type":"Feature","id":"node/3198616421","properties":{"type":"node","id":3198616421,"tags":{"addr:city":"Prato","addr:housenumber":"49","addr:postcode":"59100","addr:street":"Via Giulio Gacci","craft":"handicraft","name":"Stella Ricami","note":"#artigianoinbottega"},"relations":[],"meta":{}},"geometry":{"type":"Point","coordinates":[11.086842,43.8461775]}},{"type":"Feature","id":"node/3198647587","properties":{"type":"node","id":3198647587,"tags":{"addr:city":"Prato","addr:postcode":"59100","addr:street":"Via di Cantagallo","craft":"painter","name":"Stucchinai Varago","note":"#artigianoinbottega"},"relations":[],"meta":{}},"geometry":{"type":"Point","coordinates":[11.0951246,43.9106653]}},{"type":"Feature","id":"node/3199946236","properties":{"type":"node","id":3199946236,"tags":{"addr:city":"Prato","addr:housenumber":"46","addr:postcode":"59100","addr:street":"Via Rinascita","craft":"carpenter","name":"Faber Lignum","note":"#artigianoinbottega"},"relations":[],"meta":{}},"geometry":{"type":"Point","coordinates":[11.0804661,43.8629131]}},{"type":"Feature","id":"node/3199984650","properties":{"type":"node","id":3199984650,"tags":{"craft":"handicraft"},"relations":[],"meta":{}},"geometry":{"type":"Point","coordinates":[11.0871112,43.8979557]}},{"type":"Feature","id":"node/3199984651","properties":{"type":"node","id":3199984651,"tags":{"addr:city":"Prato","addr:housenumber":"32","addr:postcode":"59100","addr:street":"Via Danubio","craft":"carpenter","name":"Falegnameria Chianca & Imbrenda","note":"#artigianoinbottega"},"relations":[],"meta":{}},"geometry":{"type":"Point","coordinates":[11.0871112,43.8979557]}},{"type":"Feature","id":"node/3200000089","properties":{"type":"node","id":3200000089,"tags":{"addr:city":"Prato","addr:housenumber":"32","addr:postcode":"59100","addr:street":"Via Amilcare Ponchielli","craft":"carpenter","name":"Falegnameria Fiesoli","note":"#artigianoinbottega"},"relations":[],"meta":{}},"geometry":{"type":"Point","coordinates":[11.0780521,43.8874021]}},{"type":"Feature","id":"node/3200019315","properties":{"type":"node","id":3200019315,"tags":{"addr:city":"Prato","addr:housenumber":"67","addr:postcode":"59100","addr:street":"Via Toscana","craft":"carpenter","name":"Falegnameria Meccanica Martini Luciano","note":"#artigianoinbottega"},"relations":[],"meta":{}},"geometry":{"type":"Point","coordinates":[11.062552,43.8498595]}},{"type":"Feature","id":"node/3203110876","properties":{"type":"node","id":3203110876,"tags":{"addr:city":"Prato","addr:housenumber":"13","addr:postcode":"59100","addr:street":"Piazza Filippo Lippi","craft":"handicraft","name":"Studio d'arte Dacci Monica","note":"#artigianoinbottega"},"relations":[],"meta":{}},"geometry":{"type":"Point","coordinates":[11.0986295,43.8824285]}},{"type":"Feature","id":"node/3203132126","properties":{"type":"node","id":3203132126,"tags":{"addr:city":"Prato","addr:housenumber":"64","addr:street":"Via Santa Trinita","craft":"carpet_layer","name":"Tappezzeria Pastacaldi Patrizio","note":"#artigianoinbottega"},"relations":[],"meta":{}},"geometry":{"type":"Point","coordinates":[11.0945213,43.8776016]}},{"type":"Feature","id":"node/3203151492","properties":{"type":"node","id":3203151492,"tags":{"addr:city":"Prato","addr:housenumber":"38","addr:postcode":"59100","addr:street":"Via Giovanni Bertini","craft":"carpenter","name":"Tiepolo Arte, di Bisori Filippo","note":"#artigianoinbottega"},"relations":[],"meta":{}},"geometry":{"type":"Point","coordinates":[11.1034231,43.8675276]}},{"type":"Feature","id":"node/3203156318","properties":{"type":"node","id":3203156318,"tags":{"addr:city":"Prato","addr:housenumber":"20","addr:street":"Via Matteo Degli Organi","craft":"handicraft","name":"Top Color","note":"#artigianoinbottega"},"relations":[],"meta":{}},"geometry":{"type":"Point","coordinates":[11.0579317,43.8853337]}},{"type":"Feature","id":"node/3203163814","properties":{"type":"node","id":3203163814,"tags":{"addr:city":"Prato","addr:housenumber":"10","addr:postcode":"59100","addr:street":"Via Ferdinando Palasciano","craft":"carpenter","name":"Toscagiunco","note":"#artigianoinbottega"},"relations":[],"meta":{}},"geometry":{"type":"Point","coordinates":[11.0528312,43.8969509]}},{"type":"Feature","id":"node/3203167480","properties":{"type":"node","id":3203167480,"tags":{"addr:city":"Prato","addr:housenumber":"2","addr:street":"Via del Pancolone","craft":"carpenter","name":"Tucci e Bartolini di Tucci Gino & C.","note":"#artigianoinbottega"},"relations":[],"meta":{}},"geometry":{"type":"Point","coordinates":[11.0449903,43.8799339]}},{"type":"Feature","id":"node/3203173105","properties":{"type":"node","id":3203173105,"tags":{"addr:city":"Prato","addr:housenumber":"5","addr:postcode":"59100","addr:street":"Via Adolfo Toccafondi","craft":"glaziery","name":"Veteria Gabuzzini","note":"#artigianoinbottega"},"relations":[],"meta":{}},"geometry":{"type":"Point","coordinates":[11.0886743,43.8887697]}},{"type":"Feature","id":"node/3203174728","properties":{"type":"node","id":3203174728,"tags":{"addr:city":"Prato","addr:housenumber":"2","addr:postcode":"59100","addr:street":"Via Yuri Gagarin","craft":"glaziery","name":"Vetrate Artistiche Mariotti","note":"#artigianoinbottega"},"relations":[],"meta":{}},"geometry":{"type":"Point","coordinates":[11.0752461,43.8598636]}},{"type":"Feature","id":"node/3203182009","properties":{"type":"node","id":3203182009,"tags":{"addr:city":"Prato","addr:housenumber":"189","addr:postcode":"59100","addr:street":"Via Fabio Filzi","craft":"glaziery","name":"Vetreria 2000","note":"#artigianoinbottega"},"relations":[],"meta":{}},"geometry":{"type":"Point","coordinates":[11.0765496,43.8906913]}},{"type":"Feature","id":"node/3203182957","properties":{"type":"node","id":3203182957,"tags":{"addr:city":"Prato","addr:housenumber":"51","addr:postcode":"59100","addr:street":"Via Fiorentina","craft":"glaziery","name":"Vetreria Albatros","note":"#artigianoinbottega"},"relations":[],"meta":{}},"geometry":{"type":"Point","coordinates":[11.0926209,43.8630388]}},{"type":"Feature","id":"node/3203186274","properties":{"type":"node","id":3203186274,"tags":{"addr:city":"Prato","addr:housenumber":"8","addr:postcode":"59100","addr:street":"Via dell'Artigianato","craft":"glaziery","name":"Vetreria Artistica Larcher","note":"#artigianoinbottega"},"relations":[],"meta":{}},"geometry":{"type":"Point","coordinates":[11.0745196,43.8993615]}},{"type":"Feature","id":"node/3203191801","properties":{"type":"node","id":3203191801,"tags":{"addr:city":"Prato","addr:housenumber":"210","addr:postcode":"59100","addr:street":"Via Adriano Zarini","craft":"glaziery","name":"Vetreria Cambi","note":"#artigianoinbottega"},"relations":[],"meta":{}},"geometry":{"type":"Point","coordinates":[11.0987783,43.8702982]}},{"type":"Feature","id":"node/3203193412","properties":{"type":"node","id":3203193412,"tags":{"addr:city":"Prato","addr:housenumber":"116","addr:postcode":"59100","addr:street":"Via Cilianuzzo","craft":"glaziery","name":"Vetreria Durgoni","note":"#artigianoinbottega"},"relations":[],"meta":{}},"geometry":{"type":"Point","coordinates":[11.0983123,43.8992293]}},{"type":"Feature","id":"node/3204196956","properties":{"type":"node","id":3204196956,"tags":{"addr:city":"Prato","addr:housenumber":"16","addr:postcode":"59100","addr:street":"Via della Polla","craft":"carpenter","name":"Falegnameria Poggini Luca","note":"#artigianoinbottega"},"relations":[],"meta":{}},"geometry":{"type":"Point","coordinates":[11.0405204,43.8599269]}},{"type":"Feature","id":"node/3204202445","properties":{"type":"node","id":3204202445,"tags":{"addr:city":"Prato","addr:housenumber":"2","addr:postcode":"59100","addr:street":"Via Alfredo Menichetti","craft":"carpenter","name":"Falegnameria Udine","note":"#artigianoinbottega"},"relations":[],"meta":{}},"geometry":{"type":"Point","coordinates":[11.0656295,43.8619385]}},{"type":"Feature","id":"node/3204207257","properties":{"type":"node","id":3204207257,"tags":{"addr:city":"Prato","addr:housenumber":"28","addr:postcode":"59100","addr:street":"Via Claudio Monteverdi","craft":"carpenter","name":"Falegnameria Vantaggiato S.a.s. di Francesco e Lorenzo Vantaggiato & C.","note":"#artigianoinbottega"},"relations":[],"meta":{}},"geometry":{"type":"Point","coordinates":[11.0754297,43.8877584]}},{"type":"Feature","id":"node/3204224637","properties":{"type":"node","id":3204224637,"tags":{"addr:city":"Prato","addr:housenumber":"14","addr:postcode":"59100","addr:street":"Via Viuccia del Pozzo","craft":"carpenter","name":"Franco Arredamenti di Masi Franco","note":"#artigianoinbottega"},"relations":[],"meta":{}},"geometry":{"type":"Point","coordinates":[11.0852727,43.8445414]}},{"type":"Feature","id":"node/3204272283","properties":{"type":"node","id":3204272283,"tags":{"addr:city":"Prato","addr:housenumber":"2a","addr:postcode":"59100","addr:street":"Via Ser Piero Dondi","craft":"jeweller","name":"Genesis Creazioni artigianali in pietre dure e fossili","note":"#artigianoinbottega"},"relations":[],"meta":{}},"geometry":{"type":"Point","coordinates":[11.0574204,43.8870308]}},{"type":"Feature","id":"node/3204304008","properties":{"type":"node","id":3204304008,"tags":{"addr:city":"Prato","addr:housenumber":"56","addr:postcode":"59100","addr:street":"Via Traversa delle Ripalte","craft":"painter","name":"Decorlab","note":"#pratoartigianoinbottega"},"relations":[],"meta":{}},"geometry":{"type":"Point","coordinates":[11.100331,43.8574136]}},{"type":"Feature","id":"node/3204351265","properties":{"type":"node","id":3204351265,"tags":{"addr:city":"Prato","addr:housenumber":"552","addr:postcode":"59100","addr:street":"Via Roma","craft":"carpenter","name":"Falegnameria Ceccarelli","note":"#artigianoinbottega"},"relations":[],"meta":{}},"geometry":{"type":"Point","coordinates":[11.0698578,43.8410882]}},{"type":"Feature","id":"node/3204954989","properties":{"type":"node","id":3204954989,"tags":{"addr:city":"Prato","addr:housenumber":"110/U","addr:postcode":"59100","addr:street":"Via Firenze","craft":"handicraft","name":"Idea Tenda","note":"#artigianoinbottega"},"relations":[],"meta":{}},"geometry":{"type":"Point","coordinates":[11.1304754,43.865443]}},{"type":"Feature","id":"node/3204958158","properties":{"type":"node","id":3204958158,"tags":{"addr:city":"Prato","addr:housenumber":"21","addr:street":"Via Fernando Rapezzi","craft":"blacksmith","name":"Il Ferro Battuto, di Martelli Lorenzo","note":"#artigianoinbottega"},"relations":[],"meta":{}},"geometry":{"type":"Point","coordinates":[11.0870265,43.8888494]}},{"type":"Feature","id":"node/3204971585","properties":{"type":"node","id":3204971585,"tags":{"addr:city":"Prato","addr:housenumber":"21","addr:postcode":"59100","addr:street":"Via Stradellino","craft":"carpenter","name":"Gruppofficina di Giampaolo Bindi","note":"#artigianoinbottega"},"relations":[],"meta":{}},"geometry":{"type":"Point","coordinates":[11.0656561,43.8682165]}},{"type":"Feature","id":"node/3204974115","properties":{"type":"node","id":3204974115,"tags":{"addr:city":"Prato","addr:housenumber":"100","addr:postcode":"59100","addr:street":"Via Roma","craft":"handicraft","name":"Il Seggiolaio di Giacomelli Fabio","note":"#artigianoinbottega"},"relations":[],"meta":{}},"geometry":{"type":"Point","coordinates":[11.0910872,43.8738052]}},{"type":"Feature","id":"node/3204980574","properties":{"type":"node","id":3204980574,"tags":{"addr:city":"Prato","addr:housenumber":"62-64","addr:postcode":"59100","addr:street":"Via di Mezzo","craft":"handicraft","name":"Impagliatura Traiani","note":"#artigianoinbottega"},"relations":[],"meta":{}},"geometry":{"type":"Point","coordinates":[11.0571816,43.8769036]}},{"type":"Feature","id":"node/3204990656","properties":{"type":"node","id":3204990656,"tags":{"addr:city":"Prato","addr:housenumber":"101","addr:postcode":"59100","addr:street":"Via Paolo dell'Abbaco","craft":"handicraft","name":"Impresa Baldi","note":"#artigianoinbottega"},"relations":[],"meta":{}},"geometry":{"type":"Point","coordinates":[11.0887574,43.8743183]}},{"type":"Feature","id":"node/3204999565","properties":{"type":"node","id":3204999565,"tags":{"addr:city":"Prato","addr:housenumber":"1/3","addr:postcode":"59100","addr:street":"Via Ticino","craft":"carpenter","name":"L'arte del Ponte Vecchio","note":"#artigianoinbottega"},"relations":[],"meta":{}},"geometry":{"type":"Point","coordinates":[11.0846959,43.8925206]}},{"type":"Feature","id":"node/3205122781","properties":{"type":"node","id":3205122781,"tags":{"addr:city":"Prato","addr:housenumber":"33","addr:postcode":"59100","addr:street":"via Frascati","craft":"jeweller","name":"Laboratorio orafo, Idee d'Oro, di Acquasanta Maria","note":"#artigianoinbottega"},"relations":[],"meta":{}},"geometry":{"type":"Point","coordinates":[11.0973353,43.8772086]}},{"type":"Feature","id":"node/3205143701","properties":{"type":"node","id":3205143701,"tags":{"addr:city":"Prato","addr:housenumber":"33","addr:postcode":"59100","addr:street":"Via Arrigo da Settimello","craft":"pottery","name":"Lg Terrecotte, di Lorenzoni Graziano","note":"#artigianoinbottega"},"relations":[],"meta":{}},"geometry":{"type":"Point","coordinates":[11.0845081,43.8584756]}},{"type":"Feature","id":"node/3205147369","properties":{"type":"node","id":3205147369,"tags":{"addr:city":"Prato","addr:housenumber":"1/3","addr:postcode":"59100","addr:street":"Via Dino Saccenti","craft":"stonemason","name":"Marmotecnica Prato","note":"#artigianoinbottega"},"relations":[],"meta":{}},"geometry":{"type":"Point","coordinates":[11.0751646,43.8989609]}},{"type":"Feature","id":"node/3205150873","properties":{"type":"node","id":3205150873,"tags":{"addr:city":"Prato","addr:housenumber":"19","addr:postcode":"59100","addr:street":"Via Giuseppe di Vittorio","craft":"stonemason","name":"Marmitalia Snc, di Fiore Emanuele e Querci Paolo","note":"#artigianoinbottega"},"relations":[],"meta":{}},"geometry":{"type":"Point","coordinates":[11.0606548,43.867654]}},{"type":"Feature","id":"node/3205158804","properties":{"type":"node","id":3205158804,"tags":{"addr:city":"Prato","addr:housenumber":"10","addr:postcode":"59100","addr:street":"Via Gherardacci","craft":"carpenter","name":"Mercurio Cornici","note":"#artigianoinbottega"},"relations":[],"meta":{}},"geometry":{"type":"Point","coordinates":[11.0399251,43.8630858]}},{"type":"Feature","id":"node/3205375424","properties":{"type":"node","id":3205375424,"tags":{"addr:city":"Prato","addr:housenumber":"35","addr:postcode":"59100","addr:street":"Via Dino Saccenti","craft":"blacksmith,_glaziery","name":"Freak Out!","note":"#artigianoinbottega"},"relations":[],"meta":{}},"geometry":{"type":"Point","coordinates":[11.0755269,43.8991794]}},{"type":"Feature","id":"node/3205387859","properties":{"type":"node","id":3205387859,"tags":{"addr:city":"Prato","addr:country":"IT","addr:housenumber":"24","addr:postcode":"59100","addr:street":"Via Carlo Levi","craft":"dressmaker","name":"Aircollection ricamo","note":"#artigianoinbottega"},"relations":[],"meta":{}},"geometry":{"type":"Point","coordinates":[11.0409514,43.8806447]}},{"type":"Feature","id":"node/3205396011","properties":{"type":"node","id":3205396011,"tags":{"addr:city":"Prato","addr:housenumber":"14","addr:postcode":"59100","addr:street":"Via della Stufa","craft":"handicraft","name":"Oggetti d'autore","note":"#pratoartigianoinbottega"},"relations":[],"meta":{}},"geometry":{"type":"Point","coordinates":[11.0965434,43.8832949]}},{"type":"Feature","id":"node/3205400382","properties":{"type":"node","id":3205400382,"tags":{"addr:city":"Prato","addr:housenumber":"49","addr:postcode":"59100","addr:street":"Via Gaetano Magnolfi","craft":"jeweller","name":"Andrea Amerighi","note":"#artigianoinbottega"},"relations":[],"meta":{}},"geometry":{"type":"Point","coordinates":[11.0980401,43.8833485]}},{"type":"Feature","id":"node/3205411031","properties":{"type":"node","id":3205411031,"tags":{"addr:city":"Prato","addr:housenumber":"6","addr:street":"Via del Pellegrino","craft":"dressmaker","name":"Camiceria Baldini","note":"#artigianoinbottega"},"relations":[],"meta":{}},"geometry":{"type":"Point","coordinates":[11.0944214,43.8793931]}},{"type":"Feature","id":"node/3205414561","properties":{"type":"node","id":3205414561,"tags":{"addr:city":"Prato","addr:housenumber":"22","addr:street":"Piazza San Domenico","craft":"carpenter","name":"Cornici Landini","note":"#artigianoinbottega"},"relations":[],"meta":{}},"geometry":{"type":"Point","coordinates":[11.0940121,43.8818977]}},{"type":"Feature","id":"node/3205428797","properties":{"type":"node","id":3205428797,"tags":{"addr:city":"Prato","addr:housenumber":"2","addr:postcode":"59100","addr:street":"Via del Pesco","craft":"stonemason","name":"Artigiana Marmi","note":"#artigianoinbottega"},"relations":[],"meta":{}},"geometry":{"type":"Point","coordinates":[11.1394207,43.8580075]}},{"type":"Feature","id":"node/3205834686","properties":{"type":"node","id":3205834686,"tags":{"addr:city":"Prato","addr:housenumber":"35","addr:postcode":"59025","addr:street":"Via Cantagallo","craft":"blacksmith","name":"Artigiana Ferro","note":"#artigianoinbottega"},"relations":[],"meta":{}},"geometry":{"type":"Point","coordinates":[11.0991697,43.8991606]}},{"type":"Feature","id":"node/3205834906","properties":{"type":"node","id":3205834906,"tags":{"addr:city":"Prato","addr:housenumber":"6","addr:postcode":"59100","addr:street":"Via Carlo Goldoni","craft":"jeweller","name":"Casali Massimo","note":"#pratoartigianoinbottega"},"relations":[],"meta":{}},"geometry":{"type":"Point","coordinates":[11.104807,43.8973565]}},{"type":"Feature","id":"node/3205836918","properties":{"type":"node","id":3205836918,"tags":{"addr:city":"Prato","addr:housenumber":"44","addr:postcode":"59100","addr:street":"Via Alberto Casella","craft":"painter","name":"Arte a Parte Deco Snc","note":"#artigianoinbottega"},"relations":[],"meta":{}},"geometry":{"type":"Point","coordinates":[11.1067006,43.8975304]}},{"type":"Feature","id":"node/3205851123","properties":{"type":"node","id":3205851123,"tags":{"addr:city":"Prato","addr:housenumber":"122","addr:postcode":"59100","addr:street":"Via del Campaccio","craft":"carpenter","name":"Falegnameria Duepi","note":"#artigianoinbottega"},"relations":[],"meta":{}},"geometry":{"type":"Point","coordinates":[11.0802004,43.8942176]}},{"type":"Feature","id":"node/3205860092","properties":{"type":"node","id":3205860092,"tags":{"addr:city":"Prato","addr:housenumber":"128","addr:postcode":"59100","addr:street":"Via del Campaccio","craft":"stonemason","name":"Raffaele Bellini Marmi","note":"#artigianoinbottega"},"relations":[],"meta":{}},"geometry":{"type":"Point","coordinates":[11.0802353,43.8944341]}},{"type":"Feature","id":"node/3220031991","properties":{"type":"node","id":3220031991,"tags":{"addr:city":"Prato","addr:housenumber":"56","addr:postcode":"59100","addr:street":"Via Fiorentina","craft":"shoemaker","name":"Calzolaio L'espresso","note":"#artigianoinbottega"},"relations":[],"meta":{}},"geometry":{"type":"Point","coordinates":[11.0930876,43.8642893]}},{"type":"Feature","id":"node/3225453205","properties":{"type":"node","id":3225453205,"tags":{"craft":"yes"},"relations":[],"meta":{}},"geometry":{"type":"Point","coordinates":[11.1006623,43.8775241]}},{"type":"Feature","id":"node/3232148217","properties":{"type":"node","id":3232148217,"tags":{"addr:city":"Prato","addr:housenumber":"15","addr:postcode":"59100","addr:street":"Via Pomeria","craft":"glaziery","name":"Angela Ciccarello"},"relations":[],"meta":{}},"geometry":{"type":"Point","coordinates":[11.1010044,43.876361]}},{"type":"Feature","id":"node/3232151258","properties":{"type":"node","id":3232151258,"tags":{"addr:city":"Prato","addr:postcode":"59100","addr:street":"Via dell'Arco","craft":"tailor","name":"Ilaria Innocenti","note":"#pratoartigianoinbottega"},"relations":[],"meta":{}},"geometry":{"type":"Point","coordinates":[11.100822,43.8777028]}},{"type":"Feature","id":"node/3266964291","properties":{"type":"node","id":3266964291,"tags":{"addr:city":"Prato","addr:housenumber":"34","addr:postcode":"59100","addr:street":"Via Curtatone","craft":"handicraft","name":"Le Vie della Carta","note":"#pratoartigianoinbottega"},"relations":[],"meta":{}},"geometry":{"type":"Point","coordinates":[11.0928005,43.8843495]}},{"type":"Feature","id":"node/3285477661","properties":{"type":"node","id":3285477661,"tags":{"addr:city":"Prato","addr:housenumber":"8/10/12/16","addr:postcode":"59100","addr:street":"Via Francesco Ferrucci","craft":"handicraft","name":"Tappezzeria Guglielmi","note":"#pratoartigianoinbottega"},"relations":[],"meta":{}},"geometry":{"type":"Point","coordinates":[11.1020452,43.8771425]}},{"type":"Feature","id":"node/3285482182","properties":{"type":"node","id":3285482182,"tags":{"addr:city":"Prato","addr:housenumber":"23","addr:postcode":"59100","addr:street":"Via Francesco Ferrucci","craft":"handicraft","name":"Tappezzeria Vanni","note":"#pratoartigianoinbottega"},"relations":[],"meta":{}},"geometry":{"type":"Point","coordinates":[11.1025511,43.876466]}},{"type":"Feature","id":"node/3285482183","properties":{"type":"node","id":3285482183,"tags":{"addr:city":"Prato","addr:housenumber":"59","addr:postcode":"59100","addr:street":"Piazza Mercatale","craft":"handicraft","name":"COCCII' di Isabella Chiti","note":"#pratoartigianoinbottega"},"relations":[],"meta":{}},"geometry":{"type":"Point","coordinates":[11.1007759,43.8817808]}},{"type":"Feature","id":"node/3285491861","properties":{"type":"node","id":3285491861,"tags":{"addr:city":"Prato","addr:housenumber":"91","addr:postcode":"59100","addr:street":"Via del Serraglio","craft":"jeweller","name":"Laboratorio Orafo, Idee d'oro","note":"#pratoartigianoinbottega"},"relations":[],"meta":{}},"geometry":{"type":"Point","coordinates":[11.0972501,43.8845009]}},{"type":"Feature","id":"node/3285492829","properties":{"type":"node","id":3285492829,"tags":{"addr:city":"Prato","addr:housenumber":"14","addr:postcode":"59100","addr:street":"Via della Stufa","craft":"handicraft","name":"Arte & Decorazioni di Marco Sinibaldi","note":"#artigianoinbottega"},"relations":[],"meta":{}},"geometry":{"type":"Point","coordinates":[11.0965623,43.8832863]}},{"type":"Feature","id":"node/3285503481","properties":{"type":"node","id":3285503481,"tags":{"addr:city":"Prato","addr:housenumber":"33","addr:postcode":"59100","addr:street":"Via Convenevole","craft":"handicraft","name":"La Tappezzeria","note":"#pratoartigianoinbottega"},"relations":[],"meta":{}},"geometry":{"type":"Point","coordinates":[11.095328,43.8822072]}},{"type":"Feature","id":"node/3285924728","properties":{"type":"node","id":3285924728,"tags":{"addr:city":"Prato","addr:housenumber":"22","addr:postcode":"59100","addr:street":"Via San Giorgio","craft":"carpenter","name":"Ovattoni cornici","note":"#pratoartigianoinbottega"},"relations":[],"meta":{}},"geometry":{"type":"Point","coordinates":[11.0989605,43.8827151]}},{"type":"Feature","id":"node/3285951654","properties":{"type":"node","id":3285951654,"tags":{"addr:city":"Prato","addr:housenumber":"9","addr:postcode":"59100","addr:street":"Via della Sirena","craft":"dressmaker","name":"Sartoria Ago D'oro","note":"#pratoartigianoinbottega"},"relations":[],"meta":{}},"geometry":{"type":"Point","coordinates":[11.0968919,43.8826657]}},{"type":"Feature","id":"node/3285951655","properties":{"type":"node","id":3285951655,"tags":{"addr:city":"Prato","addr:housenumber":"52","addr:postcode":"59100","addr:street":"Via Marianna Nistri","craft":"clockmaker","name":"il Laboratorio dell'Orologiaio","note":"#pratoartigianoinbottega"},"relations":[],"meta":{}},"geometry":{"type":"Point","coordinates":[11.0940328,43.8767196]}},{"type":"Feature","id":"node/3286028782","properties":{"type":"node","id":3286028782,"tags":{"addr:city":"Prato","addr:housenumber":"66","addr:street":"Via 20 Settembre","craft":"carpenter","name":"Falegnameria Corsi","note":"#pratoartigianoinbottega"},"relations":[],"meta":{}},"geometry":{"type":"Point","coordinates":[11.0377447,43.8643998]}},{"type":"Feature","id":"node/3300166138","properties":{"type":"node","id":3300166138,"tags":{"addr:city":"Prato","addr:housenumber":"32/b","addr:postcode":"59100","addr:street":"Via Giuseppe Verdi","craft":"handicraft","name":"La Bottega alla Fine dei Mondi","note":"#pratoartigianoinbottega"},"relations":[],"meta":{}},"geometry":{"type":"Point","coordinates":[11.0998499,43.8798248]}},{"type":"Feature","id":"node/3832381437","properties":{"type":"node","id":3832381437,"tags":{"addr:city":"prato","addr:housenumber":"11","addr:postcode":"59100","addr:street":"Via Orindo Pieri","craft":"handicraft","name":"Giessetex","name_1":"artigianato","note":"#artigianoinbottega"},"relations":[],"meta":{}},"geometry":{"type":"Point","coordinates":[11.0897097,43.8416961]}},{"type":"Feature","id":"node/3832401180","properties":{"type":"node","id":3832401180,"tags":{"addr:city":"Prato","addr:housenumber":"1/B","addr:postcode":"59100","addr:street":"via papa Giovanni XXII","craft":"handicraft","name":"La bottega d'altri tempi","name_1":"artigianato","note":"#artigianoinbottega"},"relations":[],"meta":{}},"geometry":{"type":"Point","coordinates":[11.1169184,43.874236]}},{"type":"Feature","id":"node/3832405044","properties":{"type":"node","id":3832405044,"tags":{"addr:city":"Prato","addr:housenumber":"80","addr:postcode":"59100","addr:street":"via pomeria","craft":"blacksmith","name":"L'officina del ferro","name_1":"Artigianato","note":"#artigianoinbottega"},"relations":[],"meta":{}},"geometry":{"type":"Point","coordinates":[11.0988708,43.8760824]}},{"type":"Feature","id":"node/3832409726","properties":{"type":"node","id":3832409726,"tags":{"addr:city":"Prato","addr:housenumber":"7/A","addr:postcode":"59100","addr:street":"via dell'Arco","craft":"handicraft","name":"Stefano Ramazzotti","name_1":"artigianato","note":"#artigianoinbottega"},"relations":[],"meta":{}},"geometry":{"type":"Point","coordinates":[11.1008481,43.8776711]}},{"type":"Feature","id":"node/3832416370","properties":{"type":"node","id":3832416370,"tags":{"addr:city":"Prato","addr:housenumber":"22/c","addr:postcode":"59100","addr:street":"Via del Lavacchione","craft":"carpenter","name":"Legn'artÃ©","name_1":"Artigianato","note":"#artigianoinbottega"},"relations":[],"meta":{}},"geometry":{"type":"Point","coordinates":[11.0306116,43.8643575]}},{"type":"Feature","id":"node/3832427786","properties":{"type":"node","id":3832427786,"tags":{"addr:city":"prato","addr:housenumber":"461","addr:postcode":"59100","addr:street":"via bologna","craft":"handicraft","name":"Hope custom lab","name_1":"Artigianato","note":"#artigianoinbottega"},"relations":[],"meta":{}},"geometry":{"type":"Point","coordinates":[11.109226,43.9051449]}},{"type":"Feature","id":"node/3832450879","properties":{"type":"node","id":3832450879,"tags":{"addr:city":"Prato","addr:housenumber":"81","addr:postcode":"59100","addr:street":"via dei Tintori","craft":"handicraft","name":"Pastificio Ferraboschi","name_1":"Agroalimentare","note":"#artigianoinbottega"},"relations":[],"meta":{}},"geometry":{"type":"Point","coordinates":[11.0988113,43.8821732]}}]}
