{"type":"FeatureCollection","features":[{"type":"Feature","id":"relation/447811","properties":{"type":"relation","id":447811,"tags":{"addr:city":"Prato","addr:postcode":"59100","addr:street":"Viale Galileo Galilei","amenity":"fuel","type":"multipolygon"},"relations":[],"meta":{}},"geometry":{"type":"Polygon","coordinates":[[[11.109325,43.9027692],[11.1093343,43.9021668],[11.1097131,43.9024201],[11.1097213,43.9025369],[11.1093919,43.9027678],[11.109325,43.9027692]]]}},{"type":"Feature","id":"way/320485011","properties":{"type":"way","id":320485011,"tags":{"amenity":"fuel","building":"yes","opening_hours":"7 / 24","operator":"Conad"},"relations":[],"meta":{}},"geometry":{"type":"Polygon","coordinates":[[[11.0714565,43.8981833],[11.0711721,43.8979901],[11.0708664,43.8977233],[11.0705552,43.8973909],[11.0713116,43.8970353],[11.0722343,43.8976615],[11.0714565,43.8981833]]]}},{"type":"Feature","id":"way/321381152","properties":{"type":"way","id":321381152,"tags":{"amenity":"fuel","building":"yes","operator":"Esso","wheelchair":"yes"},"relations":[],"meta":{}},"geometry":{"type":"Polygon","coordinates":[[[11.0757588,43.8980478],[11.0751339,43.8983861],[11.075107,43.8983126],[11.0747664,43.8980073],[11.0753297,43.8976961],[11.0755362,43.897901],[11.0755979,43.8978739],[11.0757588,43.8980478]]]}},{"type":"Feature","id":"way/321386386","properties":{"type":"way","id":321386386,"tags":{"addr:city":"Prato","addr:housenumber":"244","addr:postcode":"59100","addr:street":"Viale Montegrappa","amenity":"fuel","building":"roof","layer":"1","name":"Esso","operator":"Esso"},"relations":[],"meta":{}},"geometry":{"type":"Polygon","coordinates":[[[11.110502,43.8706227],[11.1104392,43.8705721],[11.1105576,43.8704956],[11.1106205,43.8705463],[11.110502,43.8706227]]]}},{"type":"Feature","id":"way/326445766","properties":{"type":"way","id":326445766,"tags":{"amenity":"fuel"},"relations":[],"meta":{}},"geometry":{"type":"Polygon","coordinates":[[[11.1197354,43.8614203],[11.1202006,43.8607139],[11.1208507,43.8609716],[11.1203886,43.8616802],[11.1203115,43.8616914],[11.1201667,43.8616403],[11.1200188,43.8615581],[11.1199387,43.8614425],[11.1198709,43.8614159],[11.1197354,43.8614203]]]}},{"type":"Feature","id":"way/326445767","properties":{"type":"way","id":326445767,"tags":{"amenity":"fuel","building":"yes","name":"TotalErg","operator":"Total Erg"},"relations":[],"meta":{}},"geometry":{"type":"Polygon","coordinates":[[[11.1200495,43.8610543],[11.1201276,43.8609262],[11.1204427,43.8610262],[11.1204091,43.8610813],[11.1205279,43.8611189],[11.1204835,43.8611919],[11.1200495,43.8610543]]]}},{"type":"Feature","id":"way/326449197","properties":{"type":"way","id":326449197,"tags":{"amenity":"fuel","building":"yes","operator":"Agip"},"relations":[],"meta":{}},"geometry":{"type":"Polygon","coordinates":[[[11.1112979,43.8698042],[11.1112162,43.8697631],[11.1112617,43.8697161],[11.1113434,43.8697573],[11.1112979,43.8698042]]]}},{"type":"Feature","id":"way/326449199","properties":{"type":"way","id":326449199,"tags":{"amenity":"fuel","building":"yes","operator":"Agip"},"relations":[],"meta":{}},"geometry":{"type":"Polygon","coordinates":[[[11.1111136,43.8697635],[11.1109901,43.8697018],[11.1110676,43.8696212],[11.1111152,43.869645],[11.111193,43.8695641],[11.1113261,43.8696306],[11.1112548,43.8697047],[11.1111976,43.8696761],[11.1111136,43.8697635]]]}},{"type":"Feature","id":"way/326449200","properties":{"type":"way","id":326449200,"tags":{"amenity":"fuel"},"relations":[],"meta":{}},"geometry":{"type":"Polygon","coordinates":[[[11.1111551,43.8700002],[11.1109145,43.8697323],[11.1113144,43.8694019],[11.1114595,43.8692897],[11.1116382,43.8695371],[11.1111551,43.8700002]]]}},{"type":"Feature","id":"way/326748142","properties":{"type":"way","id":326748142,"tags":{"addr:city":"Prato","addr:postcode":"59100","addr:street":"Viale Montegrappa","amenity":"fuel","building":"yes","name":"Agip","operator":"Agip"},"relations":[],"meta":{}},"geometry":{"type":"Polygon","coordinates":[[[11.1143815,43.8667944],[11.1142337,43.8667132],[11.1142846,43.866665],[11.1144324,43.8667463],[11.1143815,43.8667944]]]}},{"type":"Feature","id":"way/326748143","properties":{"type":"way","id":326748143,"tags":{"amenity":"fuel"},"relations":[],"meta":{}},"geometry":{"type":"Polygon","coordinates":[[[11.114211,43.8670071],[11.1140259,43.8667876],[11.1142378,43.8665962],[11.1142432,43.8664589],[11.1143478,43.8663341],[11.1146589,43.8664898],[11.1146978,43.8665353],[11.114211,43.8670071]]]}},{"type":"Feature","id":"way/326748145","properties":{"type":"way","id":326748145,"tags":{"addr:city":"Prato","addr:postcode":"59100","addr:street":"Viale Montegrappa","amenity":"fuel","brand":"IP","building":"yes","name":"IP","operator":"IP"},"relations":[],"meta":{}},"geometry":{"type":"Polygon","coordinates":[[[11.117308,43.8638359],[11.1172139,43.8637397],[11.1173084,43.8636916],[11.1173888,43.8637738],[11.1173695,43.8638046],[11.117308,43.8638359]]]}},{"type":"Feature","id":"way/326748146","properties":{"type":"way","id":326748146,"tags":{"addr:city":"Prato","addr:postcode":"59100","addr:street":"Viale Montegrappa","amenity":"fuel"},"relations":[],"meta":{}},"geometry":{"type":"Polygon","coordinates":[[[11.117343,43.8638882],[11.1171977,43.8637365],[11.1173186,43.8636778],[11.1175168,43.8635899],[11.1175819,43.863606],[11.1176053,43.8636273],[11.117343,43.8638882]]]}},{"type":"Feature","id":"way/329411591","properties":{"type":"way","id":329411591,"tags":{"amenity":"fuel"},"relations":[],"meta":{}},"geometry":{"type":"Polygon","coordinates":[[[11.1227736,43.8563376],[11.1223606,43.856092],[11.1229185,43.8556897],[11.1230043,43.8557536],[11.1230553,43.8557207],[11.1231599,43.8557922],[11.1230901,43.8558464],[11.122956,43.856034],[11.1229694,43.8560765],[11.1228782,43.8561558],[11.1227736,43.8563376]]]}},{"type":"Feature","id":"way/329411592","properties":{"type":"way","id":329411592,"tags":{"amenity":"fuel","brand":"Shell","building":"yes","name":"Shell","operator":"Shell"},"relations":[],"meta":{}},"geometry":{"type":"Polygon","coordinates":[[[11.1226851,43.8562171],[11.1224904,43.8560828],[11.1226089,43.8559935],[11.122596,43.8559846],[11.1228819,43.8557692],[11.123033,43.8558736],[11.1228046,43.8560456],[11.122861,43.8560846],[11.1226851,43.8562171]]]}},{"type":"Feature","id":"way/331723429","properties":{"type":"way","id":331723429,"tags":{"amenity":"fuel","operator":"Q8"},"relations":[],"meta":{}},"geometry":{"type":"Polygon","coordinates":[[[11.1397506,43.8603277],[11.1394993,43.8601593],[11.1399983,43.859779],[11.1402479,43.8599564],[11.1397506,43.8603277]]]}},{"type":"Feature","id":"way/331723440","properties":{"type":"way","id":331723440,"tags":{"amenity":"fuel","operator":"Total"},"relations":[],"meta":{}},"geometry":{"type":"Polygon","coordinates":[[[11.1226549,43.8702387],[11.1224243,43.8699816],[11.1228454,43.869765],[11.1229071,43.869794],[11.1229822,43.8698539],[11.123119,43.8698887],[11.1231914,43.8699641],[11.1226549,43.8702387]]]}},{"type":"Feature","id":"way/332128456","properties":{"type":"way","id":332128456,"tags":{"amenity":"fuel"},"relations":[],"meta":{}},"geometry":{"type":"Polygon","coordinates":[[[11.0959139,43.9018341],[11.0969975,43.9018361],[11.0969734,43.9019115],[11.0971129,43.9020351],[11.0967937,43.9022342],[11.0962894,43.9022361],[11.0959139,43.9018341]]]}},{"type":"Feature","id":"way/332128457","properties":{"type":"way","id":332128457,"tags":{"amenity":"fuel","operator":"Agip"},"relations":[],"meta":{}},"geometry":{"type":"Polygon","coordinates":[[[11.0957664,43.9014747],[11.0961097,43.9012698],[11.0963753,43.901266],[11.0967776,43.9016563],[11.0958415,43.9016641],[11.0959166,43.901581],[11.0957664,43.9014747]]]}},{"type":"Feature","id":"way/332409478","properties":{"type":"way","id":332409478,"tags":{"amenity":"fuel","area":"yes"},"relations":[],"meta":{}},"geometry":{"type":"Polygon","coordinates":[[[11.0888095,43.8803831],[11.0887021,43.8803932],[11.0885434,43.8803427],[11.0883892,43.8801879],[11.0883682,43.8800701],[11.0883916,43.8800027],[11.0888095,43.8803831]]]}},{"type":"Feature","id":"way/332409479","properties":{"type":"way","id":332409479,"tags":{"amenity":"fuel","building":"yes"},"relations":[],"meta":{}},"geometry":{"type":"Polygon","coordinates":[[[11.0885542,43.8803123],[11.0884218,43.8801861],[11.0885059,43.8801402],[11.0886383,43.8802664],[11.0885542,43.8803123]]]}},{"type":"Feature","id":"way/351835557","properties":{"type":"way","id":351835557,"tags":{"addr:city":"Prato","addr:housenumber":"176","addr:postcode":"59100","addr:street":"Viale Borgo Valsugana","amenity":"fuel","building":"no","name":"Q8","operator":"Q8"},"relations":[],"meta":{}},"geometry":{"type":"Polygon","coordinates":[[[11.1156958,43.8749299],[11.1152891,43.8747378],[11.1157066,43.8743824],[11.1158899,43.8744912],[11.1159423,43.8744535],[11.1161487,43.874449],[11.1156958,43.8749299]]]}},{"type":"Feature","id":"way/351835558","properties":{"type":"way","id":351835558,"tags":{"addr:city":"Prato","addr:housenumber":"176","addr:postcode":"59100","addr:street":"Viale Borgo Valsugana","amenity":"fuel","building":"yes","name":"Q8","operator":"Q8"},"relations":[],"meta":{}},"geometry":{"type":"Polygon","coordinates":[[[11.1158742,43.874731],[11.1156784,43.8746399],[11.1157681,43.8745396],[11.1159639,43.8746306],[11.1158742,43.874731]]]}},{"type":"Feature","id":"way/408989234","properties":{"type":"way","id":408989234,"tags":{"amenity":"fuel","name":"Benzina Esso"},"relations":[],"meta":{}},"geometry":{"type":"Polygon","coordinates":[[[11.0442062,43.8468038],[11.044292,43.8467612],[11.0444851,43.8469469],[11.0443832,43.8469972],[11.0442062,43.8468038]]]}},{"type":"Feature","id":"way/408989250","properties":{"type":"way","id":408989250,"tags":{"amenity":"fuel","name":"Benzina Total"},"relations":[],"meta":{}},"geometry":{"type":"Polygon","coordinates":[[[11.0440453,43.8476472],[11.0438843,43.8474653],[11.0439809,43.8474421],[11.0441257,43.8476162],[11.0440453,43.8476472]]]}},{"type":"Feature","id":"way/408989989","properties":{"type":"way","id":408989989,"tags":{"amenity":"fuel","name":"Benzina Esso"},"relations":[],"meta":{}},"geometry":{"type":"Polygon","coordinates":[[[11.0718008,43.8806384],[11.0717149,43.8805301],[11.0718115,43.8804953],[11.071892,43.8806074],[11.0718008,43.8806384]]]}},{"type":"Feature","id":"node/227739315","properties":{"type":"node","id":227739315,"tags":{"amenity":"fuel","brand":"Shell","name":"Shell","operator":"Shell"},"relations":[],"meta":{}},"geometry":{"type":"Point","coordinates":[11.081214,43.887718]}},{"type":"Feature","id":"node/227739741","properties":{"type":"node","id":227739741,"tags":{"amenity":"fuel","brand":"Shell","name":"Shell","operator":"Shell"},"relations":[],"meta":{}},"geometry":{"type":"Point","coordinates":[11.083617,43.863356]}},{"type":"Feature","id":"node/227786419","properties":{"type":"node","id":227786419,"tags":{"amenity":"fuel","brand":"Esso","name":"Esso","operator":"Esso"},"relations":[],"meta":{}},"geometry":{"type":"Point","coordinates":[11.0624451,43.8756394]}},{"type":"Feature","id":"node/227935582","properties":{"type":"node","id":227935582,"tags":{"amenity":"fuel","brand":"Agip","name":"Agip","operator":"Agip"},"relations":[],"meta":{}},"geometry":{"type":"Point","coordinates":[11.102951,43.842033]}},{"type":"Feature","id":"node/227991387","properties":{"type":"node","id":227991387,"tags":{"amenity":"fuel","brand":"Beyfin","name":"Beyfin","operator":"Beyfin"},"relations":[],"meta":{}},"geometry":{"type":"Point","coordinates":[11.0844392,43.8991585]}},{"type":"Feature","id":"node/227991392","properties":{"type":"node","id":227991392,"tags":{"amenity":"fuel","brand":"Agip","name":"Agip","operator":"Agip"},"relations":[],"meta":{}},"geometry":{"type":"Point","coordinates":[11.076643,43.895047]}},{"type":"Feature","id":"node/227991396","properties":{"type":"node","id":227991396,"tags":{"amenity":"fuel","brand":"Agip","name":"Agip","operator":"Agip"},"relations":[],"meta":{}},"geometry":{"type":"Point","coordinates":[11.076858,43.894413]}},{"type":"Feature","id":"node/227991397","properties":{"type":"node","id":227991397,"tags":{"amenity":"fuel","brand":"TotalErg","name":"TotalErg","operator":"TotalErg"},"relations":[],"meta":{}},"geometry":{"type":"Point","coordinates":[11.0680244,43.8874112]}},{"type":"Feature","id":"node/227991399","properties":{"type":"node","id":227991399,"tags":{"amenity":"fuel","brand":"Metano","name":"Metano","operator":"Metano"},"relations":[],"meta":{}},"geometry":{"type":"Point","coordinates":[11.0885522,43.9016686]}},{"type":"Feature","id":"node/227992802","properties":{"type":"node","id":227992802,"tags":{"amenity":"fuel","brand":"api","name":"ERG","operator":"Total Erg"},"relations":[],"meta":{}},"geometry":{"type":"Point","coordinates":[11.12016,43.861051]}},{"type":"Feature","id":"node/228053827","properties":{"type":"node","id":228053827,"tags":{"amenity":"fuel","brand":"Q8","name":"Q8","operator":"Q8"},"relations":[],"meta":{}},"geometry":{"type":"Point","coordinates":[11.1398461,43.860076]}},{"type":"Feature","id":"node/228054012","properties":{"type":"node","id":228054012,"tags":{"amenity":"fuel","brand":"Q8","name":"Q8","operator":"Q8"},"relations":[],"meta":{}},"geometry":{"type":"Point","coordinates":[11.087678,43.8956679]}},{"type":"Feature","id":"node/228054222","properties":{"type":"node","id":228054222,"tags":{"amenity":"fuel","brand":"Q8","name":"Q8","operator":"Q8","wheelchair":"yes"},"relations":[],"meta":{}},"geometry":{"type":"Point","coordinates":[11.0454195,43.8831207]}},{"type":"Feature","id":"node/228054407","properties":{"type":"node","id":228054407,"tags":{"amenity":"fuel","brand":"Agip","name":"Agip","operator":"Agip"},"relations":[],"meta":{}},"geometry":{"type":"Point","coordinates":[11.0437479,43.8829508]}},{"type":"Feature","id":"node/228054411","properties":{"type":"node","id":228054411,"tags":{"amenity":"fuel","brand":"Esso","name":"Esso","operator":"Esso"},"relations":[],"meta":{}},"geometry":{"type":"Point","coordinates":[11.0289966,43.8868211]}},{"type":"Feature","id":"node/228054568","properties":{"type":"node","id":228054568,"tags":{"amenity":"fuel","brand":"Tamoil","name":"Tamoil","operator":"Tamoil"},"relations":[],"meta":{}},"geometry":{"type":"Point","coordinates":[11.0285914,43.8862354]}},{"type":"Feature","id":"node/275674242","properties":{"type":"node","id":275674242,"tags":{"amenity":"fuel","operator":"Agip"},"relations":[],"meta":{}},"geometry":{"type":"Point","coordinates":[11.1132118,43.9058464]}},{"type":"Feature","id":"node/275674772","properties":{"type":"node","id":275674772,"tags":{"amenity":"fuel","operator":"Esso"},"relations":[],"meta":{}},"geometry":{"type":"Point","coordinates":[11.1114093,43.905463]}},{"type":"Feature","id":"node/289032097","properties":{"type":"node","id":289032097,"tags":{"amenity":"fuel","created_by":"Potlatch 0.10b"},"relations":[],"meta":{}},"geometry":{"type":"Point","coordinates":[11.0309038,43.9013949]}},{"type":"Feature","id":"node/360604560","properties":{"type":"node","id":360604560,"tags":{"amenity":"fuel","brand":"Agip","name":"Agip","operator":"Agip"},"relations":[],"meta":{}},"geometry":{"type":"Point","coordinates":[11.0962433,43.901493]}},{"type":"Feature","id":"node/360604585","properties":{"type":"node","id":360604585,"tags":{"amenity":"fuel","brand":"Esso","name":"Esso","operator":"Esso"},"relations":[],"meta":{}},"geometry":{"type":"Point","coordinates":[11.0919097,43.9046542]}},{"type":"Feature","id":"node/593970281","properties":{"type":"node","id":593970281,"tags":{"amenity":"fuel","brand":"Q8","name":"Q8","operator":"Q8"},"relations":[],"meta":{}},"geometry":{"type":"Point","coordinates":[11.1099645,43.8584611]}},{"type":"Feature","id":"node/705818939","properties":{"type":"node","id":705818939,"tags":{"amenity":"fuel","name":"Agip","operator":"Agip"},"relations":[],"meta":{}},"geometry":{"type":"Point","coordinates":[11.1092972,43.862246]}},{"type":"Feature","id":"node/705818941","properties":{"type":"node","id":705818941,"tags":{"amenity":"fuel","name":"Esso","operator":"Esso"},"relations":[],"meta":{}},"geometry":{"type":"Point","coordinates":[11.1113176,43.8658]}},{"type":"Feature","id":"node/705818943","properties":{"type":"node","id":705818943,"tags":{"amenity":"fuel","name":"Agip","operator":"Agip"},"relations":[],"meta":{}},"geometry":{"type":"Point","coordinates":[11.1112058,43.8697238]}},{"type":"Feature","id":"node/705818945","properties":{"type":"node","id":705818945,"tags":{"amenity":"fuel","name":"IP","operator":"IP"},"relations":[],"meta":{}},"geometry":{"type":"Point","coordinates":[11.1076874,43.8735284]}},{"type":"Feature","id":"node/1724064992","properties":{"type":"node","id":1724064992,"tags":{"amenity":"fuel","brand":"Total","name":"Total","operator":"Total"},"relations":[],"meta":{}},"geometry":{"type":"Point","coordinates":[11.1228685,43.8700334]}},{"type":"Feature","id":"node/1841501990","properties":{"type":"node","id":1841501990,"tags":{"amenity":"fuel","brand":"Eni","name":"Stazione Agip"},"relations":[],"meta":{}},"geometry":{"type":"Point","coordinates":[11.0536328,43.8574605]}},{"type":"Feature","id":"node/1917001245","properties":{"type":"node","id":1917001245,"tags":{"amenity":"fuel"},"relations":[],"meta":{}},"geometry":{"type":"Point","coordinates":[11.0778833,43.8902926]}},{"type":"Feature","id":"node/2511161832","properties":{"type":"node","id":2511161832,"tags":{"amenity":"fuel"},"relations":[],"meta":{}},"geometry":{"type":"Point","coordinates":[11.0488608,43.8653193]}},{"type":"Feature","id":"node/2611710576","properties":{"type":"node","id":2611710576,"tags":{"amenity":"fuel","name":"Agip","operator":"Agip","wheelchair":"yes"},"relations":[],"meta":{}},"geometry":{"type":"Point","coordinates":[11.0684428,43.8940449]}},{"type":"Feature","id":"node/3896326724","properties":{"type":"node","id":3896326724,"tags":{"amenity":"fuel"},"relations":[],"meta":{}},"geometry":{"type":"Point","coordinates":[11.0635699,43.8307964]}}]}
