{
  "version": 0.6,
  "generator": "Overpass API",
  "osm3s": {
    "timestamp_osm_base": "2016-04-03T21:10:01Z",
    "timestamp_areas_base": "2016-03-30T00:26:01Z",
    "copyright": "The data included in this document is from www.openstreetmap.org. The data is made available under ODbL."
  },
  "elements": [

{
  "type": "node",
  "id": 290018616,
  "lat": 43.9092221,
  "lon": 11.1160444,
  "tags": {
    "amenity": "place_of_worship",
    "denomination": "catholic",
    "name": "Chiesa di Santa Lucia in monte",
    "religion": "christian"
  }
},
{
  "type": "node",
  "id": 327561575,
  "lat": 43.9031103,
  "lon": 11.0727281,
  "tags": {
    "amenity": "place_of_worship",
    "denomination": "catholic",
    "religion": "christian",
    "wheelchair": "yes"
  }
},
{
  "type": "node",
  "id": 341347985,
  "lat": 43.8960537,
  "lon": 11.1103572,
  "tags": {
    "amenity": "place_of_worship",
    "loc_name": "Villa del Palco",
    "religion": "christian"
  }
},
{
  "type": "node",
  "id": 372534185,
  "lat": 43.8917952,
  "lon": 11.1167188,
  "tags": {
    "amenity": "place_of_worship",
    "denomination": "catholic",
    "name": "Chiesa di Santa Maria a Filettole",
    "religion": "christian",
    "source": "local_knowledge"
  }
},
{
  "type": "node",
  "id": 471024740,
  "lat": 43.8853955,
  "lon": 11.0705450,
  "tags": {
    "amenity": "place_of_worship",
    "denomination": "catholic",
    "name": "Chiesino di Stagnana",
    "religion": "christian"
  }
},
{
  "type": "node",
  "id": 477675410,
  "lat": 43.8870543,
  "lon": 11.0704030,
  "tags": {
    "amenity": "place_of_worship",
    "denomination": "catholic",
    "name": "San Paolo a Stagnana",
    "religion": "christian",
    "wheelchair": "yes"
  }
},
{
  "type": "node",
  "id": 503407292,
  "lat": 43.8959240,
  "lon": 11.0663480,
  "tags": {
    "amenity": "place_of_worship",
    "denomination": "catholic",
    "name": "Chiesa di Narnali",
    "religion": "christian",
    "wheelchair": "limited"
  }
},
{
  "type": "node",
  "id": 582648001,
  "lat": 43.8795093,
  "lon": 11.0938071,
  "tags": {
    "amenity": "place_of_worship",
    "denomination": "catholic",
    "religion": "christian"
  }
},
{
  "type": "node",
  "id": 841990777,
  "lat": 43.8752780,
  "lon": 11.1065039,
  "tags": {
    "amenity": "place_of_worship",
    "religion": "christian"
  }
},
{
  "type": "node",
  "id": 1430538808,
  "lat": 43.8787794,
  "lon": 11.0543573,
  "tags": {
    "amenity": "place_of_worship",
    "denomination": "catholic",
    "name": "Chiesa di San Martino a Vergaio",
    "religion": "christian"
  }
},
{
  "type": "node",
  "id": 1545688761,
  "lat": 43.8588599,
  "lon": 11.0967552,
  "tags": {
    "amenity": "place_of_worship",
    "name": "San Pio X",
    "religion": "christian"
  }
},
{
  "type": "node",
  "id": 1884522643,
  "lat": 43.8702711,
  "lon": 11.0539839,
  "tags": {
    "amenity": "place_of_worship",
    "denomination": "catholic",
    "name": "Chiesa di San Silvestro",
    "religion": "christian"
  }
},
{
  "type": "node",
  "id": 3554376602,
  "lat": 43.8803606,
  "lon": 11.0995747,
  "tags": {
    "addr:city": "Prato",
    "addr:postcode": "59100",
    "addr:street": "Via Pugliesi",
    "amenity": "place_of_worship",
    "denomination": "catholic",
    "name": "San Giorgio",
    "religion": "christian"
  }
},
{
  "type": "node",
  "id": 3928265442,
  "lat": 43.8864369,
  "lon": 11.0870419,
  "tags": {
    "addr:city": "Prato",
    "addr:housenumber": "2-24",
    "addr:postcode": "59100",
    "addr:street": "Via Goffredo Mameli",
    "amenity": "place_of_worship",
    "denomination": "catholic",
    "name": "Chiesa Chinatown",
    "name:zh": "中国街教堂",
    "religion": "christian"
  }
},
{
  "type": "node",
  "id": 4093060389,
  "lat": 43.8949830,
  "lon": 11.0657880,
  "tags": {
    "amenity": "place_of_worship",
    "name": "Vecchio chiesino di Narnali"
  }
},
{
  "type": "way",
  "id": 59511648,
  "nodes": [
    738093190,
    738093172,
    738093187,
    738093194,
    738093190
  ],
  "tags": {
    "amenity": "place_of_worship",
    "building": "collapsed",
    "name": "Chiesa di San Biagio",
    "religion": "christian",
    "ruins": "yes",
    "wikipedia": "it:Chiesa di San Biagio a Cavagliano"
  }
},
{
  "type": "way",
  "id": 180242603,
  "nodes": [
    1906808901,
    278822226,
    1906808907,
    1906808896,
    1906808876,
    1906808944,
    1906808918,
    1906808948,
    1906808953,
    1906808943,
    2862897924,
    2862897939,
    290263008,
    484270874,
    1906808895,
    1906808901
  ],
  "tags": {
    "amenity": "place_of_worship",
    "building": "church",
    "denomination": "catholic",
    "loc_name": "Duomo",
    "name": "Cattedrale di Santo Stefano",
    "religion": "christian",
    "wikipedia": "it:Duomo di Prato"
  }
},
{
  "type": "way",
  "id": 180242607,
  "nodes": [
    1906808879,
    1906808923,
    1906808934,
    1906808932,
    1906808928,
    1906808925,
    1906808917,
    1906808913,
    1906808887,
    3528031734,
    2863014400,
    2863014409,
    3400214893,
    1906808879
  ],
  "tags": {
    "amenity": "place_of_worship",
    "building": "church",
    "denomination": "catholic",
    "historic": "church",
    "name": "San Francesco",
    "religion": "christian",
    "wikipedia": "it:Chiesa di San Francesco (Prato)"
  }
},
{
  "type": "way",
  "id": 180242614,
  "nodes": [
    1906808937,
    2863086317,
    1906808931,
    2506174112,
    2506174110,
    1906808924,
    2506172854,
    1906808903,
    2506175320,
    1906808890,
    1906808885,
    1906808878,
    1906808937
  ],
  "tags": {
    "amenity": "place_of_worship",
    "building": "yes",
    "denomination": "catholic",
    "name": "San Domenico",
    "religion": "christian",
    "wikipedia": "it:Chiesa di San Domenico (Prato)"
  }
},
{
  "type": "way",
  "id": 200950762,
  "nodes": [
    2109063812,
    2109063810,
    2109063811,
    2109063809,
    2109063808,
    2109063814,
    2109063813,
    335606084,
    484270883,
    484270884,
    484270885,
    484270886,
    2109063812
  ],
  "tags": {
    "amenity": "place_of_worship",
    "building": "church",
    "denomination": "catholic",
    "historic": "church",
    "name": "Basilica di Santa Maria delle Carceri",
    "religion": "christian",
    "wikipedia": "it:Basilica di Santa Maria delle Carceri"
  }
},
{
  "type": "way",
  "id": 206865580,
  "nodes": [
    2813101917,
    2813101913,
    2813101914,
    2169123566,
    2169123568,
    2169123576,
    2169123571,
    2169123573,
    2169123572,
    2169123569,
    2169123564,
    2813101917
  ],
  "tags": {
    "amenity": "place_of_worship",
    "building": "church",
    "denomination": "catholic",
    "name": "Chiesa di San Giorgio",
    "religion": "christian",
    "wikipedia": "it:Chiesa di San Giorgio a Colonica"
  }
},
{
  "type": "way",
  "id": 210831810,
  "nodes": [
    2208693773,
    2208693774,
    2208693772,
    2208693767,
    2208693773
  ],
  "tags": {
    "amenity": "place_of_worship",
    "building": "church",
    "denomination": "catholic",
    "name": "Chiesino di Cavagliano",
    "religion": "christian",
    "wikipedia": "it:Chiesino di Cavagliano"
  }
},
{
  "type": "way",
  "id": 243195200,
  "nodes": [
    1906808878,
    2863086311,
    2506175318,
    2506175319,
    2506175322,
    2506175320,
    1906808890,
    1906808885,
    1906808878
  ],
  "tags": {
    "amenity": "place_of_worship",
    "building": "church",
    "denomination": "catholic",
    "name": "Oratorio di San Sebastiano",
    "religion": "christian",
    "wikipedia": "it:Oratorio di San Sebastiano (Prato)"
  }
},
{
  "type": "way",
  "id": 243519120,
  "nodes": [
    2509129334,
    2863014248,
    2509129380,
    2509129366,
    2863014260,
    2509129337,
    2509129329,
    2509129334
  ],
  "tags": {
    "amenity": "place_of_worship",
    "building": "yes",
    "denomination": "catholic",
    "name": "Chiesa di Sant'Anna",
    "religion": "christian",
    "wikipedia": "it:Oratorio di Sant'Anna (Prato)"
  }
},
{
  "type": "way",
  "id": 264339944,
  "nodes": [
    2700276302,
    2700276305,
    2700276307,
    2700276309,
    2700276311,
    2700276313,
    2700276315,
    2700276317,
    2700276319,
    2700276321,
    2700276323,
    2700276325,
    2700276327,
    2700276329,
    2700276331,
    2700276333,
    2700276302
  ],
  "tags": {
    "amenity": "place_of_worship",
    "building": "yes",
    "denomination": "catholic",
    "name": "Chiesa dell'Immacolata Concezione",
    "religion": "christian",
    "wikipedia": "it:Chiesa dell'Immacolata Concezione (Prato)"
  }
},
{
  "type": "way",
  "id": 270613901,
  "nodes": [
    2756339025,
    2756339026,
    2756339027,
    2756339028,
    2756339029,
    2756339030,
    2756339031,
    2756339032,
    2756339033,
    2756339034,
    2756339035,
    2756339036,
    2756339025
  ],
  "tags": {
    "addr:city": "Prato",
    "addr:housenumber": "42",
    "addr:postcode": "59100",
    "addr:street": "Via Medaglie d'oro",
    "amenity": "place_of_worship",
    "building": "church",
    "name": "Chiesa dei Santi Martiri",
    "phone": "+39 0574 051479",
    "religion": "christian",
    "wikipedia": "it:Chiesa dei Santi Martiri (Prato)"
  }
},
{
  "type": "way",
  "id": 270883447,
  "nodes": [
    2758473968,
    2758473969,
    2758473970,
    2758473971,
    2758473972,
    2758473973,
    2758473974,
    2758473975,
    2758473968
  ],
  "tags": {
    "amenity": "place_of_worship",
    "building": "yes",
    "denomination": "catholic",
    "name": "San Pietro a Grignano",
    "religion": "christian",
    "wikipedia": "it:Chiesa di San Pietro a Grignano"
  }
},
{
  "type": "way",
  "id": 276716682,
  "nodes": [
    2813040007,
    2813040014,
    2813040008,
    2813040011,
    2813040007
  ],
  "tags": {
    "amenity": "place_of_worship",
    "building": "yes",
    "denomination": "roman_catholic",
    "name": "San Paolo a Carteano",
    "religion": "christian",
    "wikipedia": "it:Chiesa di San Paolo a Carteano"
  }
},
{
  "type": "way",
  "id": 276717396,
  "nodes": [
    2813051279,
    2813051297,
    2813051302,
    2813051295,
    2813051289,
    2813051279
  ],
  "tags": {
    "amenity": "place_of_worship",
    "building": "church",
    "name": "Chiesa di San Giorgio a Castelnuovo",
    "religion": "christian",
    "wikipedia": "it:Chiesa di San Giorgio a Castelnuovo"
  }
},
{
  "type": "way",
  "id": 276718871,
  "nodes": [
    2813075509,
    2813075522,
    2813075515,
    2813075506,
    2813075509
  ],
  "tags": {
    "amenity": "place_of_worship",
    "building": "ch",
    "name": "San Michele",
    "religion": "christian"
  }
},
{
  "type": "way",
  "id": 276720500,
  "nodes": [
    2813080379,
    2813080388,
    2813080371,
    2813080398,
    2813080376,
    2813080360,
    2813080372,
    2813080389,
    2813080370,
    2813089007,
    2813080393,
    2813080374,
    2813089014,
    2813089017,
    2813080379
  ],
  "tags": {
    "amenity": "place_of_worship",
    "building": "church",
    "name": "Chiesa di Santa Maria Maddalena",
    "religion": "christian",
    "wikipedia": "it:Chiesa di Santa Maria Maddalena a Tavola"
  }
},
{
  "type": "way",
  "id": 276720501,
  "nodes": [
    2813089005,
    2813089015,
    2813080382,
    2813089001,
    2813089004,
    2813089011,
    2813080384,
    2813080383,
    2813089008,
    2813089006,
    2813089003,
    2813089018,
    2813089016,
    2813089009,
    2813089005
  ],
  "tags": {
    "amenity": "place_of_worship",
    "building": "church",
    "name": "Chiesa di San Giusto in Piazzanese",
    "religion": "christian",
    "wikipedia": "it:Chiesa di San Giusto in Piazzanese"
  }
},
{
  "type": "way",
  "id": 276721865,
  "nodes": [
    2813091201,
    2813091219,
    2813091218,
    2813091220,
    2813091221,
    2813091203,
    2813091206,
    2813091215,
    2813091201
  ],
  "tags": {
    "amenity": "place_of_worship",
    "building": "church",
    "name": "Pieve di Sant'Ippolito in Piazzanese",
    "religion": "christian",
    "wikipedia": "it:Pieve di Sant'Ippolito in Piazzanese"
  }
},
{
  "type": "way",
  "id": 276723917,
  "nodes": [
    2813101908,
    2813099100,
    2813101916,
    2813101909,
    2813101912,
    2813099098,
    2813099095,
    2813101920,
    2813101901,
    2813101923,
    2813101908
  ],
  "tags": {
    "amenity": "place_of_worship",
    "building": "church",
    "denomination": "roman_catholic",
    "name": "Pieve di Santa Maria a Colonica",
    "religion": "christian",
    "wikipedia": "it:Pieve di Santa Maria a Colonica"
  }
},
{
  "type": "way",
  "id": 282415595,
  "nodes": [
    2863248238,
    2863248239,
    2863248240,
    2863248241,
    2863248238
  ],
  "tags": {
    "addr:city": "Prato",
    "addr:housenumber": "72",
    "addr:postcode": "59100",
    "addr:street": "Via Antonio Anile",
    "amenity": "place_of_worship",
    "building": "yes",
    "denomination": "catholic",
    "religion": "christian"
  }
},
{
  "type": "way",
  "id": 301846955,
  "nodes": [
    3059986307,
    3059986308,
    3059986309,
    3059986310,
    3059986317,
    3059986316,
    3059986315,
    3059986311,
    3059986312,
    3059986313,
    3059986314,
    3059986307
  ],
  "tags": {
    "amenity": "place_of_worship",
    "building": "yes",
    "wheelchair": "yes"
  }
},
{
  "type": "way",
  "id": 309954874,
  "nodes": [
    3152940786,
    3152940787,
    3152940788,
    3152940789,
    3152940786
  ],
  "tags": {
    "amenity": "place_of_worship",
    "building": "church",
    "denomination": "catholic",
    "name": "Chiesa dei Cappuccini",
    "religion": "christian",
    "wikipedia": "it:Chiesa dei Cappuccini (Prato)"
  }
},
{
  "type": "way",
  "id": 311539531,
  "nodes": [
    3172137361,
    3172137375,
    3172137385,
    3172137384,
    3172137361
  ],
  "tags": {
    "amenity": "place_of_worship",
    "building": "church",
    "name": "Chiesa di Gesù Divino Lavoratore",
    "religion": "christian",
    "wikipedia": "it:Chiesa di Gesù Divino Lavoratore (Prato)"
  }
},
{
  "type": "way",
  "id": 315801751,
  "nodes": [
    3219343465,
    3219343466,
    3219343467,
    3219343468,
    3219343469,
    3219343470,
    3219343471,
    3219343472,
    3219343473,
    3219343474,
    3219343475,
    3219343476,
    3219343477,
    3219343478,
    3219343479,
    3219343480,
    3219343481,
    3219343482,
    3219343483,
    3219343484,
    3219343485,
    3219343465
  ],
  "tags": {
    "addr:city": "Prato",
    "addr:housenumber": "2",
    "addr:postcode": "59100",
    "addr:street": "Via Francesco Mario Pagano",
    "amenity": "place_of_worship",
    "building": "church",
    "name": "Chiesa dell'Annunciazione",
    "phone": "+39 0574 38449",
    "religion": "christian",
    "website": "http://www.diocesiprato.it/parrocchia.asp?id_parrocchia=11",
    "wikipedia": "it:Chiesa dell'Annunciazione (Prato)"
  }
},
{
  "type": "way",
  "id": 316572959,
  "nodes": [
    3227038537,
    3227038536,
    3227038534,
    3227038531,
    3227038532,
    3227038533,
    3227038535,
    3227038537
  ],
  "tags": {
    "amenity": "place_of_worship",
    "building": "church",
    "denomination": "catholic",
    "name": "Oratorio di Santa Maria Maddalena dei Malsani",
    "religion": "christian",
    "source": "bing",
    "wikipedia": "it:Oratorio di Santa Maria Maddalena dei Malsani"
  }
},
{
  "type": "way",
  "id": 320170466,
  "nodes": [
    3266697198,
    3266697199,
    3266697200,
    3266697201,
    3266697202,
    3266697203,
    3266697204,
    3266697205,
    3266697206,
    3266697207,
    3266697208,
    3266697209,
    3266697210,
    3266697211,
    3266697212,
    3266697213,
    3266697214,
    3266697215,
    3266697216,
    3266697198
  ],
  "tags": {
    "amenity": "place_of_worship",
    "building": "yes",
    "religion": "christian"
  }
},
{
  "type": "way",
  "id": 320947409,
  "nodes": [
    3276516324,
    3276516334,
    3276516335,
    3276516323,
    3276516324
  ],
  "tags": {
    "amenity": "place_of_worship",
    "building": "church",
    "denomination": "catholic",
    "name": "Oratorio di San Martino a Coiano",
    "religion": "christian",
    "wikipedia": "it:Oratorio di San Martino a Coiano"
  }
},
{
  "type": "way",
  "id": 321291030,
  "nodes": [
    3280348458,
    3280348459,
    3280348460,
    3280351361,
    3280351362,
    3280351363,
    3280351364,
    3280351365,
    3280351366,
    3280348458
  ],
  "tags": {
    "amenity": "place_of_worship",
    "building": "yes",
    "religion": "christian"
  }
},
{
  "type": "way",
  "id": 321659299,
  "nodes": [
    3284122323,
    3284122324,
    3284122325,
    3284122326,
    3284122327,
    3284122328,
    3284122329,
    3284122330,
    3284122331,
    3284122332,
    3284122333,
    3284122334,
    3284122323
  ],
  "tags": {
    "addr:city": "Prato",
    "addr:housenumber": "296",
    "addr:postcode": "59100",
    "addr:street": "Via Montalese",
    "amenity": "place_of_worship",
    "building": "yes",
    "denomination": "catholic",
    "name": "Santa Maria dell'Umiltà - Chiesanuova",
    "phone": "+39 0574 465890",
    "religion": "christian"
  }
},
{
  "type": "way",
  "id": 321775845,
  "nodes": [
    3285417287,
    3285417288,
    3285417289,
    3285417290,
    3285417287
  ],
  "tags": {
    "addr:city": "Prato",
    "addr:housenumber": "4",
    "addr:postcode": "59100",
    "addr:street": "Piazza Santa Maria della Pietà",
    "amenity": "place_of_worship",
    "building": "church",
    "denomination": "catholic",
    "name": "Chiesa Santa Maria della Pietà",
    "phone": "+39 0574 21840",
    "religion": "christian",
    "website": "http://www.parrocchiasantamariadellapieta.it/",
    "wikipedia": "it:Chiesa di Santa Maria della Pietà (Prato)"
  }
},
{
  "type": "way",
  "id": 321775848,
  "nodes": [
    3285417346,
    3285417347,
    3285417348,
    3285417349,
    3285417350,
    3285417351,
    3285417352,
    3285417353,
    3285417354,
    3285417355,
    3285417356,
    3285417357,
    3285417358,
    3285417359,
    3285417360,
    3285417361,
    3285417362,
    3285417346
  ],
  "tags": {
    "addr:city": "Prato",
    "addr:housenumber": "2",
    "addr:postcode": "59100",
    "addr:street": "Via Papa Giovanni XXIII",
    "amenity": "place_of_worship",
    "building": "church",
    "denomination": "catholic",
    "name": "Chiesa della Sacra Famiglia",
    "phone": "+39 0574 592216",
    "religion": "christian",
    "source": "survey",
    "wikipedia": "it:Chiesa della Sacra Famiglia (Prato)"
  }
},
{
  "type": "way",
  "id": 323059215,
  "nodes": [
    3298592858,
    3298592859,
    3298592860,
    3298598261,
    3298592858
  ],
  "tags": {
    "addr:city": "Prato",
    "addr:housenumber": "149",
    "addr:postcode": "59100",
    "addr:street": "Piazza Mercatale",
    "amenity": "place_of_worship",
    "building": "church",
    "denomination": "catholic",
    "name": "Chiesa di San Bartolomeo",
    "religion": "christian",
    "wikipedia": "it:Chiesa di San Bartolomeo (Prato)"
  }
},
{
  "type": "way",
  "id": 323418340,
  "nodes": [
    3302172425,
    3302172426,
    3302172427,
    3302172428,
    3302172429,
    3302172430,
    3302172431,
    3302172432,
    3302172433,
    3302172434,
    3302172435,
    3302172436,
    3302172437,
    3302172438,
    3302172439,
    3302172440,
    3302172441,
    3302172442,
    3302172443,
    3302172444,
    3302172445,
    3302172446,
    3302172447,
    3302172448,
    3302172449,
    3302172450,
    3302172451,
    3302172452,
    3302172453,
    3302172454,
    3302172455,
    3302172456,
    3302172457,
    3302172458,
    3302172459,
    3302172460,
    3302172661,
    3302172662,
    3302172663,
    3302172664,
    3302172665,
    3302172666,
    3302172667,
    3302172425
  ],
  "tags": {
    "amenity": "place_of_worship",
    "building": "church",
    "denomination": "catholic",
    "name": "Chiesa di San Giovanni Bosco",
    "religion": "christian",
    "wheelchair": "yes",
    "wikipedia": "it:Chiesa di San Giovanni Bosco (Prato)"
  }
},
{
  "type": "way",
  "id": 323452613,
  "nodes": [
    3302435957,
    3302435958,
    3302435959,
    3302435960,
    3302435961,
    3302435962,
    3302435963,
    3302435964,
    3302435965,
    3302435966,
    3302435957
  ],
  "tags": {
    "addr:city": "Prato",
    "addr:housenumber": "31",
    "addr:postcode": "59100",
    "addr:street": "Via Sant'Anna",
    "amenity": "place_of_worship",
    "building": "church",
    "denomination": "catholic",
    "name": "Chiesa di Sant'Anna in Giolica",
    "religion": "christian",
    "source": "survey",
    "wikipedia": "it:Chiesa di Sant'Anna in Giolica"
  }
},
{
  "type": "way",
  "id": 324586223,
  "nodes": [
    3312994361,
    3312994362,
    3225479282,
    3312994157,
    3312994158,
    3312994363,
    3312994364,
    2863014315,
    3312994365,
    2863014325,
    2863014329,
    2863014336,
    3312994366,
    3312994367,
    3312994368,
    3312994361
  ],
  "tags": {
    "addr:city": "Prato",
    "addr:housenumber": "13",
    "addr:postcode": "59100",
    "addr:street": "Piazza San Marco",
    "amenity": "place_of_worship",
    "building": "church",
    "denomination": "catholic",
    "name": "Santuario della Madonna del Giglio",
    "religion": "christian",
    "wikipedia": "it:Santuario della Madonna del Giglio"
  }
},
{
  "type": "way",
  "id": 324771782,
  "nodes": [
    3314541900,
    3314541901,
    3314541908,
    3314541902,
    3314541903,
    3314541900
  ],
  "tags": {
    "addr:city": "Prato",
    "addr:housenumber": "24",
    "addr:postcode": "59100",
    "addr:street": "Via di Canneto",
    "amenity": "place_of_worship",
    "building": "yes",
    "denomination": "roman_catholic",
    "email": "canneto@diocesiprato.it",
    "name": "Chiesa di San Michele a Canneto",
    "phone": "+39 0574 460101",
    "religion": "christian"
  }
},
{
  "type": "way",
  "id": 325084798,
  "nodes": [
    3317552927,
    3317552928,
    3317552929,
    3317552938,
    3317552930,
    3317552931,
    3317552932,
    3317552933,
    3317552934,
    3317552935,
    3317552936,
    3317552937,
    3317552927
  ],
  "tags": {
    "addr:city": "Prato",
    "addr:housenumber": "1",
    "addr:postcode": "59100",
    "addr:street": "Via della Chiesa di Santa Cristina",
    "amenity": "place_of_worship",
    "building": "church",
    "denomination": "catholic",
    "name": "Chiesa di Santa Cristina a Pimonte",
    "religion": "christian",
    "wikipedia": "it:Chiesa di Santa Cristina a Pimonte"
  }
},
{
  "type": "way",
  "id": 325213877,
  "nodes": [
    3318759341,
    3318759342,
    3318759343,
    3318759344,
    3318759341
  ],
  "tags": {
    "addr:city": "Prato",
    "addr:housenumber": "52",
    "addr:postcode": "59100",
    "addr:street": "Via Tommaso Pini",
    "amenity": "place_of_worship",
    "building": "church",
    "name": "Chiesa della Resurrezione",
    "religion": "christian",
    "wikipedia": "it:Chiesa della Resurrezione (Prato)"
  }
},
{
  "type": "way",
  "id": 325773612,
  "nodes": [
    3323835999,
    3323836000,
    3323836001,
    3323836002,
    3323836003,
    3323836004,
    3323835999
  ],
  "tags": {
    "amenity": "place_of_worship",
    "building": "church",
    "name": "Chiesa della Madonna dell'Ulivo",
    "religion": "christian",
    "wikipedia": "it:Chiesa della Madonna dell'Ulivo"
  }
},
{
  "type": "way",
  "id": 325922481,
  "nodes": [
    3325453272,
    3325453273,
    3325453274,
    3325453275,
    3325453276,
    3325453277,
    3325453278,
    3325453279,
    3325453280,
    3325453281,
    3325453282,
    3325453283,
    3325453284,
    3325453285,
    3325453286,
    3325453287,
    3325453288,
    3325453289,
    3325453272
  ],
  "tags": {
    "addr:city": "Prato",
    "addr:housenumber": "43",
    "addr:postcode": "59100",
    "addr:street": "Via Galcianese",
    "amenity": "place_of_worship",
    "building": "church",
    "building:levels": "2",
    "denomination": "catholic",
    "email": "ascensione@diocesiprato.it",
    "name": "Chiesa dell'Ascensione al Pino",
    "phone": "+39 0574 39321",
    "religion": "christian",
    "wheelchair": "yes",
    "wikipedia": "it:Chiesa dell'Ascensione (Prato)"
  }
},
{
  "type": "way",
  "id": 327111649,
  "nodes": [
    3338266724,
    3338266733,
    3338266734,
    3338266735,
    3338266736,
    3338266737,
    3338266738,
    3338266739,
    3338266740,
    3338266741,
    3338266742,
    3338266743,
    3338266744,
    3338266745,
    3338266746,
    3338266747,
    3338266748,
    3338266749,
    3338266750,
    3338266751,
    3338266752,
    3338266753,
    3726727428,
    3338266722,
    3338266721,
    3338266731,
    3338266730,
    3338266729,
    3338266728,
    3338266727,
    3338266726,
    3338266725,
    3338266724
  ],
  "tags": {
    "amenity": "place_of_worship",
    "building": "church",
    "name": "Chiesa di Sant'Antonio",
    "religion": "christian",
    "wikipedia": "it:Chiesa di Sant'Antonio a Reggiana"
  }
},
{
  "type": "way",
  "id": 331723434,
  "nodes": [
    3388224138,
    3388224139,
    3388224140,
    3388224141,
    3388224138
  ],
  "tags": {
    "addr:street": "Via Baccio Bandinelli",
    "amenity": "place_of_worship",
    "building": "church",
    "denomination": "catholic",
    "name": "Chiesa di San Lorenzo",
    "religion": "christian"
  }
},
{
  "type": "way",
  "id": 332182565,
  "nodes": [
    3392973495,
    3392973496,
    3392973493,
    3392972491,
    3392972489,
    3392972485,
    3392972488,
    3392972486,
    3392972490,
    3392972487,
    3392972492,
    3392973494,
    3392973495
  ],
  "tags": {
    "amenity": "place_of_worship",
    "building": "church",
    "denomination": "catholic",
    "name": "Chiesa di San Biagio",
    "religion": "christian",
    "wikipedia": "it:Chiesa di San Biagio a Casale"
  }
},
{
  "type": "way",
  "id": 332377985,
  "nodes": [
    3394957976,
    3394957977,
    3394957978,
    3394957979,
    296200653,
    296200987,
    3394957980,
    3394957981,
    3394957982,
    3394957983,
    3394957976
  ],
  "tags": {
    "amenity": "place_of_worship",
    "building": "church",
    "denomination": "catholic",
    "name": "Chiesa di San Bartolomeo",
    "religion": "christian",
    "wikipedia": "it:Chiesa di San Bartolomeo a Coiano"
  }
},
{
  "type": "way",
  "id": 346097653,
  "nodes": [
    3527140644,
    3527140643,
    3527140638,
    3527140637,
    3527140633,
    3527140634,
    3527140635,
    3527140636,
    3527140640,
    3527140639,
    3527140641,
    3527140642,
    3527140644
  ],
  "tags": {
    "amenity": "place_of_worship",
    "building": "church",
    "denomination": "catholic",
    "name": "Chiesa Regina Pacis",
    "religion": "christian",
    "wikipedia": "it:Chiesa di Regina Pacis"
  }
},
{
  "type": "way",
  "id": 366209548,
  "nodes": [
    2527792546,
    2527792537,
    3701939236,
    3953373009,
    3953372991,
    3701939237,
    3953372981,
    3953372985,
    3953372989,
    3953372983,
    3953372967,
    2527792546
  ],
  "tags": {
    "amenity": "place_of_worship",
    "building": "church",
    "denomination": "catholic",
    "name": "Basilica dei Santi Vincenzo e Caterina de' Ricci",
    "religion": "christian",
    "wikipedia": "it:Basilica dei Santi Vincenzo e Caterina de' Ricci"
  }
},
{
  "type": "way",
  "id": 368829978,
  "nodes": [
    3726725615,
    3726725613,
    3726725612,
    3726725611,
    3726725608,
    3726725610,
    3726725609,
    3726725614,
    3726725615
  ],
  "tags": {
    "amenity": "place_of_worship",
    "building": "church",
    "name": "Oratorio di San Bartolomeo",
    "religion": "christian",
    "wikipedia": "it:Oratorio di San Bartolomeo (Prato)"
  }
},
{
  "type": "way",
  "id": 368829980,
  "nodes": [
    3726727426,
    3726725624,
    3726725622,
    3726725617,
    3726725616,
    3726725618,
    3726725619,
    3726725620,
    3726725623,
    3726725621,
    3726727426
  ],
  "tags": {
    "amenity": "place_of_worship",
    "building": "church",
    "name": "Santuario della Madonna del Soccorso",
    "religion": "christian",
    "wikipedia": "it:Santuario della Madonna del Soccorso (Prato)"
  }
},
{
  "type": "way",
  "id": 392063791,
  "nodes": [
    3953372993,
    3953372973,
    3953372984,
    3953373004,
    3953373017,
    3953372993
  ],
  "tags": {
    "amenity": "place_of_worship",
    "building": "church",
    "name": "San Fabiano",
    "religion": "christian",
    "wikipedia": "it:Chiesa di San Fabiano"
  }
},
{
  "type": "relation",
  "id": 3345833,
  "members": [
    {
      "type": "way",
      "ref": 248419243,
      "role": "outer"
    },
    {
      "type": "way",
      "ref": 248419238,
      "role": "outer"
    }
  ],
  "tags": {
    "amenity": "place_of_worship",
    "building": "church",
    "denomination": "catholic",
    "name": "Chiesa di San Pietro",
    "religion": "christian",
    "type": "multipolygon",
    "wikipedia": "it:Chiesa di San Pietro a Mezzana"
  }
},
{
  "type": "relation",
  "id": 4249235,
  "members": [
    {
      "type": "way",
      "ref": 315804458,
      "role": "outer"
    }
  ],
  "tags": {
    "amenity": "place_of_worship",
    "building": "church",
    "denomination": "catholic",
    "name": "Sant'Agostino",
    "religion": "christian",
    "type": "multipolygon",
    "wikipedia": "it:Chiesa di Sant'Agostino (Prato)"
  }
},
{
  "type": "relation",
  "id": 4505413,
  "members": [
    {
      "type": "way",
      "ref": 323452615,
      "role": "outer"
    },
    {
      "type": "way",
      "ref": 323452616,
      "role": "outer"
    }
  ],
  "tags": {
    "addr:city": "Prato",
    "addr:housenumber": "3, 5",
    "addr:postcode": "59100",
    "addr:street": "via vittorino da Feltre",
    "amenity": "place_of_worship",
    "building": "yes",
    "religion": "christian",
    "type": "multipolygon"
  }
},
{
  "type": "relation",
  "id": 6040594,
  "members": [
    {
      "type": "way",
      "ref": 315770433,
      "role": "outer"
    },
    {
      "type": "way",
      "ref": 402949239,
      "role": "inner"
    }
  ],
  "tags": {
    "addr:city": "Prato",
    "addr:housenumber": "24",
    "addr:street": "Via Aspromonte",
    "amenity": "place_of_worship",
    "building": "church",
    "denomination": "catholic",
    "name": "Chiesa della Santissima Trinità a Viaccia",
    "religion": "christian",
    "type": "multipolygon",
    "wheelchair": "yes",
    "wikipedia": "it:Chiesa della Santissima Trinità a Viaccia"
  }
},
{
  "type": "node",
  "id": 2813080360,
  "lat": 43.8427952,
  "lon": 11.0473689
},
{
  "type": "node",
  "id": 2813080370,
  "lat": 43.8427777,
  "lon": 11.0472783
},
{
  "type": "node",
  "id": 2813080371,
  "lat": 43.8428609,
  "lon": 11.0473930
},
{
  "type": "node",
  "id": 2813080372,
  "lat": 43.8427818,
  "lon": 11.0473422
},
{
  "type": "node",
  "id": 2813080374,
  "lat": 43.8429398,
  "lon": 11.0469486
},
{
  "type": "node",
  "id": 2813080376,
  "lat": 43.8428148,
  "lon": 11.0473877
},
{
  "type": "node",
  "id": 2813080379,
  "lat": 43.8428985,
  "lon": 11.0473564
},
{
  "type": "node",
  "id": 2813080388,
  "lat": 43.8428821,
  "lon": 11.0473791
},
{
  "type": "node",
  "id": 2813080389,
  "lat": 43.8427757,
  "lon": 11.0473107
},
{
  "type": "node",
  "id": 2813080393,
  "lat": 43.8428260,
  "lon": 11.0471723
},
{
  "type": "node",
  "id": 2813080398,
  "lat": 43.8428375,
  "lon": 11.0473960
},
{
  "type": "node",
  "id": 2813089007,
  "lat": 43.8427879,
  "lon": 11.0472487
},
{
  "type": "node",
  "id": 2813089014,
  "lat": 43.8429689,
  "lon": 11.0468913
},
{
  "type": "node",
  "id": 2813089017,
  "lat": 43.8430795,
  "lon": 11.0469990
},
{
  "type": "node",
  "id": 2813051279,
  "lat": 43.8275669,
  "lon": 11.0685246
},
{
  "type": "node",
  "id": 2813051289,
  "lat": 43.8275777,
  "lon": 11.0684959
},
{
  "type": "node",
  "id": 2813051295,
  "lat": 43.8276562,
  "lon": 11.0682870
},
{
  "type": "node",
  "id": 2813051297,
  "lat": 43.8274924,
  "lon": 11.0684709
},
{
  "type": "node",
  "id": 2813051302,
  "lat": 43.8275817,
  "lon": 11.0682332
},
{
  "type": "node",
  "id": 2169123566,
  "lat": 43.8362846,
  "lon": 11.1062076
},
{
  "type": "node",
  "id": 2169123568,
  "lat": 43.8363263,
  "lon": 11.1061223
},
{
  "type": "node",
  "id": 2169123569,
  "lat": 43.8363285,
  "lon": 11.1063509
},
{
  "type": "node",
  "id": 2169123571,
  "lat": 43.8363500,
  "lon": 11.1062833
},
{
  "type": "node",
  "id": 2169123572,
  "lat": 43.8363555,
  "lon": 11.1063763
},
{
  "type": "node",
  "id": 2169123573,
  "lat": 43.8363849,
  "lon": 11.1063161
},
{
  "type": "node",
  "id": 2169123576,
  "lat": 43.8363965,
  "lon": 11.1061883
},
{
  "type": "node",
  "id": 2169123564,
  "lat": 43.8362451,
  "lon": 11.1065237
},
{
  "type": "node",
  "id": 2813101913,
  "lat": 43.8361217,
  "lon": 11.1064875
},
{
  "type": "node",
  "id": 2813101914,
  "lat": 43.8362655,
  "lon": 11.1061897
},
{
  "type": "node",
  "id": 2813101917,
  "lat": 43.8362185,
  "lon": 11.1065795
},
{
  "type": "node",
  "id": 2813099095,
  "lat": 43.8404133,
  "lon": 11.1083213
},
{
  "type": "node",
  "id": 2813101901,
  "lat": 43.8403644,
  "lon": 11.1082950
},
{
  "type": "node",
  "id": 2813101908,
  "lat": 43.8405924,
  "lon": 11.1080832
},
{
  "type": "node",
  "id": 2813101916,
  "lat": 43.8404732,
  "lon": 11.1083431
},
{
  "type": "node",
  "id": 2813101920,
  "lat": 43.8403828,
  "lon": 11.1083045
},
{
  "type": "node",
  "id": 2813101923,
  "lat": 43.8404455,
  "lon": 11.1080059
},
{
  "type": "node",
  "id": 2813099098,
  "lat": 43.8403983,
  "lon": 11.1083739
},
{
  "type": "node",
  "id": 2813099100,
  "lat": 43.8405134,
  "lon": 11.1083648
},
{
  "type": "node",
  "id": 2813101909,
  "lat": 43.8404452,
  "lon": 11.1084429
},
{
  "type": "node",
  "id": 2813101912,
  "lat": 43.8403878,
  "lon": 11.1084120
},
{
  "type": "node",
  "id": 3392972485,
  "lat": 43.8758203,
  "lon": 11.0407776
},
{
  "type": "node",
  "id": 3392972486,
  "lat": 43.8758344,
  "lon": 11.0406970
},
{
  "type": "node",
  "id": 3392972487,
  "lat": 43.8758415,
  "lon": 11.0406044
},
{
  "type": "node",
  "id": 3392972488,
  "lat": 43.8758556,
  "lon": 11.0407188
},
{
  "type": "node",
  "id": 3392972489,
  "lat": 43.8758658,
  "lon": 11.0408321
},
{
  "type": "node",
  "id": 3392972490,
  "lat": 43.8758705,
  "lon": 11.0406360
},
{
  "type": "node",
  "id": 3392972491,
  "lat": 43.8758980,
  "lon": 11.0407787
},
{
  "type": "node",
  "id": 3392972492,
  "lat": 43.8759169,
  "lon": 11.0404834
},
{
  "type": "node",
  "id": 3392973493,
  "lat": 43.8759467,
  "lon": 11.0408364
},
{
  "type": "node",
  "id": 3392973494,
  "lat": 43.8759648,
  "lon": 11.0405368
},
{
  "type": "node",
  "id": 3392973495,
  "lat": 43.8759938,
  "lon": 11.0404976
},
{
  "type": "node",
  "id": 3392973496,
  "lat": 43.8760810,
  "lon": 11.0406076
},
{
  "type": "node",
  "id": 3059986311,
  "lat": 43.8860923,
  "lon": 11.0477235
},
{
  "type": "node",
  "id": 3059986307,
  "lat": 43.8866838,
  "lon": 11.0475653
},
{
  "type": "node",
  "id": 3059986308,
  "lat": 43.8866316,
  "lon": 11.0475089
},
{
  "type": "node",
  "id": 3059986309,
  "lat": 43.8865659,
  "lon": 11.0474526
},
{
  "type": "node",
  "id": 3059986310,
  "lat": 43.8864576,
  "lon": 11.0473185
},
{
  "type": "node",
  "id": 3059986312,
  "lat": 43.8866838,
  "lon": 11.0481929
},
{
  "type": "node",
  "id": 3059986313,
  "lat": 43.8868404,
  "lon": 11.0478818
},
{
  "type": "node",
  "id": 3059986314,
  "lat": 43.8866219,
  "lon": 11.0476806
},
{
  "type": "node",
  "id": 3059986315,
  "lat": 43.8862102,
  "lon": 11.0474392
},
{
  "type": "node",
  "id": 3059986316,
  "lat": 43.8863552,
  "lon": 11.0471281
},
{
  "type": "node",
  "id": 3059986317,
  "lat": 43.8864325,
  "lon": 11.0472005
},
{
  "type": "node",
  "id": 2813091201,
  "lat": 43.8944939,
  "lon": 11.0387121
},
{
  "type": "node",
  "id": 2813091203,
  "lat": 43.8943175,
  "lon": 11.0389359
},
{
  "type": "node",
  "id": 2813091206,
  "lat": 43.8943306,
  "lon": 11.0389317
},
{
  "type": "node",
  "id": 2813091215,
  "lat": 43.8943639,
  "lon": 11.0389647
},
{
  "type": "node",
  "id": 2813091218,
  "lat": 43.8942604,
  "lon": 11.0388621
},
{
  "type": "node",
  "id": 2813091219,
  "lat": 43.8943904,
  "lon": 11.0386095
},
{
  "type": "node",
  "id": 2813091220,
  "lat": 43.8942896,
  "lon": 11.0388911
},
{
  "type": "node",
  "id": 2813091221,
  "lat": 43.8942945,
  "lon": 11.0389183
},
{
  "type": "node",
  "id": 3219040242,
  "lat": 43.8991992,
  "lon": 11.0579788
},
{
  "type": "node",
  "id": 3219040243,
  "lat": 43.8991135,
  "lon": 11.0584707
},
{
  "type": "node",
  "id": 3219040244,
  "lat": 43.8987688,
  "lon": 11.0581585
},
{
  "type": "node",
  "id": 3219040245,
  "lat": 43.8988869,
  "lon": 11.0579308
},
{
  "type": "node",
  "id": 4053466759,
  "lat": 43.8988334,
  "lon": 11.0582141
},
{
  "type": "node",
  "id": 4053466760,
  "lat": 43.8988629,
  "lon": 11.0581570
},
{
  "type": "node",
  "id": 4053466761,
  "lat": 43.8988781,
  "lon": 11.0581707
},
{
  "type": "node",
  "id": 4053466762,
  "lat": 43.8988817,
  "lon": 11.0582438
},
{
  "type": "node",
  "id": 4053466763,
  "lat": 43.8988965,
  "lon": 11.0581328
},
{
  "type": "node",
  "id": 4053466764,
  "lat": 43.8989018,
  "lon": 11.0581979
},
{
  "type": "node",
  "id": 4053466765,
  "lat": 43.8989581,
  "lon": 11.0581880
},
{
  "type": "node",
  "id": 4053466766,
  "lat": 43.8989706,
  "lon": 11.0580130
},
{
  "type": "node",
  "id": 4053466767,
  "lat": 43.8989820,
  "lon": 11.0581340
},
{
  "type": "node",
  "id": 4053466768,
  "lat": 43.8990540,
  "lon": 11.0579919
},
{
  "type": "node",
  "id": 4053466769,
  "lat": 43.8990667,
  "lon": 11.0581165
},
{
  "type": "node",
  "id": 4053466770,
  "lat": 43.8990870,
  "lon": 11.0579136
},
{
  "type": "node",
  "id": 4053466771,
  "lat": 43.8991015,
  "lon": 11.0578820
},
{
  "type": "node",
  "id": 4053466772,
  "lat": 43.8991139,
  "lon": 11.0581173
},
{
  "type": "node",
  "id": 4053466773,
  "lat": 43.8991252,
  "lon": 11.0582304
},
{
  "type": "node",
  "id": 4053466774,
  "lat": 43.8991315,
  "lon": 11.0581199
},
{
  "type": "node",
  "id": 4053466775,
  "lat": 43.8991966,
  "lon": 11.0583050
},
{
  "type": "node",
  "id": 3726725608,
  "lat": 43.8617623,
  "lon": 11.0719712
},
{
  "type": "node",
  "id": 3726725609,
  "lat": 43.8617694,
  "lon": 11.0719144
},
{
  "type": "node",
  "id": 3726725610,
  "lat": 43.8617820,
  "lon": 11.0719248
},
{
  "type": "node",
  "id": 3726725611,
  "lat": 43.8618023,
  "lon": 11.0720039
},
{
  "type": "node",
  "id": 3726725612,
  "lat": 43.8618217,
  "lon": 11.0719584
},
{
  "type": "node",
  "id": 3726725613,
  "lat": 43.8618325,
  "lon": 11.0719673
},
{
  "type": "node",
  "id": 3726725614,
  "lat": 43.8618394,
  "lon": 11.0717495
},
{
  "type": "node",
  "id": 3726725615,
  "lat": 43.8619029,
  "lon": 11.0718014
},
{
  "type": "node",
  "id": 2813080382,
  "lat": 43.8669728,
  "lon": 11.0684218
},
{
  "type": "node",
  "id": 2813080383,
  "lat": 43.8669563,
  "lon": 11.0687925
},
{
  "type": "node",
  "id": 2813080384,
  "lat": 43.8669581,
  "lon": 11.0687711
},
{
  "type": "node",
  "id": 2813089001,
  "lat": 43.8669544,
  "lon": 11.0686235
},
{
  "type": "node",
  "id": 2813089003,
  "lat": 43.8670496,
  "lon": 11.0688358
},
{
  "type": "node",
  "id": 2813089004,
  "lat": 43.8669447,
  "lon": 11.0687304
},
{
  "type": "node",
  "id": 2813089005,
  "lat": 43.8671186,
  "lon": 11.0683667
},
{
  "type": "node",
  "id": 2813089006,
  "lat": 43.8669745,
  "lon": 11.0688237
},
{
  "type": "node",
  "id": 2813089008,
  "lat": 43.8669768,
  "lon": 11.0687958
},
{
  "type": "node",
  "id": 2813089009,
  "lat": 43.8670977,
  "lon": 11.0686205
},
{
  "type": "node",
  "id": 2813089011,
  "lat": 43.8669413,
  "lon": 11.0687684
},
{
  "type": "node",
  "id": 2813089015,
  "lat": 43.8669801,
  "lon": 11.0683411
},
{
  "type": "node",
  "id": 2813089016,
  "lat": 43.8670902,
  "lon": 11.0687039
},
{
  "type": "node",
  "id": 2813089018,
  "lat": 43.8670610,
  "lon": 11.0686989
},
{
  "type": "node",
  "id": 3726725616,
  "lat": 43.8710460,
  "lon": 11.0886125
},
{
  "type": "node",
  "id": 3726725618,
  "lat": 43.8712132,
  "lon": 11.0882237
},
{
  "type": "node",
  "id": 3726725619,
  "lat": 43.8712478,
  "lon": 11.0882547
},
{
  "type": "node",
  "id": 3726725620,
  "lat": 43.8712824,
  "lon": 11.0881896
},
{
  "type": "node",
  "id": 3726725621,
  "lat": 43.8713423,
  "lon": 11.0883154
},
{
  "type": "node",
  "id": 3726725622,
  "lat": 43.8713466,
  "lon": 11.0884323
},
{
  "type": "node",
  "id": 3726725623,
  "lat": 43.8713631,
  "lon": 11.0882600
},
{
  "type": "node",
  "id": 3726725624,
  "lat": 43.8713684,
  "lon": 11.0883827
},
{
  "type": "node",
  "id": 3726727426,
  "lat": 43.8713820,
  "lon": 11.0883517
},
{
  "type": "node",
  "id": 2758473968,
  "lat": 43.8642073,
  "lon": 11.0890132
},
{
  "type": "node",
  "id": 2758473969,
  "lat": 43.8641009,
  "lon": 11.0892492
},
{
  "type": "node",
  "id": 2758473970,
  "lat": 43.8641203,
  "lon": 11.0892600
},
{
  "type": "node",
  "id": 2758473971,
  "lat": 43.8641145,
  "lon": 11.0893056
},
{
  "type": "node",
  "id": 2758473972,
  "lat": 43.8641396,
  "lon": 11.0893163
},
{
  "type": "node",
  "id": 2758473973,
  "lat": 43.8641570,
  "lon": 11.0892921
},
{
  "type": "node",
  "id": 2758473974,
  "lat": 43.8641725,
  "lon": 11.0893002
},
{
  "type": "node",
  "id": 2758473975,
  "lat": 43.8642750,
  "lon": 11.0890722
},
{
  "type": "node",
  "id": 3726725617,
  "lat": 43.8712098,
  "lon": 11.0887437
},
{
  "type": "node",
  "id": 3318759341,
  "lat": 43.8705775,
  "lon": 11.1042975
},
{
  "type": "node",
  "id": 3318759342,
  "lat": 43.8706413,
  "lon": 11.1046140
},
{
  "type": "node",
  "id": 3318759343,
  "lat": 43.8708578,
  "lon": 11.1045175
},
{
  "type": "node",
  "id": 3318759344,
  "lat": 43.8707940,
  "lon": 11.1042036
},
{
  "type": "node",
  "id": 3323835999,
  "lat": 43.8669346,
  "lon": 11.1071092
},
{
  "type": "node",
  "id": 3323836000,
  "lat": 43.8667024,
  "lon": 11.1069553
},
{
  "type": "node",
  "id": 3323836001,
  "lat": 43.8665876,
  "lon": 11.1072844
},
{
  "type": "node",
  "id": 3323836002,
  "lat": 43.8668326,
  "lon": 11.1074366
},
{
  "type": "node",
  "id": 3323836003,
  "lat": 43.8668823,
  "lon": 11.1072880
},
{
  "type": "node",
  "id": 3323836004,
  "lat": 43.8669551,
  "lon": 11.1072437
},
{
  "type": "node",
  "id": 3338266721,
  "lat": 43.8742051,
  "lon": 11.0711536
},
{
  "type": "node",
  "id": 3338266722,
  "lat": 43.8742076,
  "lon": 11.0711964
},
{
  "type": "node",
  "id": 3338266725,
  "lat": 43.8740305,
  "lon": 11.0711152
},
{
  "type": "node",
  "id": 3338266726,
  "lat": 43.8740517,
  "lon": 11.0710821
},
{
  "type": "node",
  "id": 3338266727,
  "lat": 43.8740795,
  "lon": 11.0710605
},
{
  "type": "node",
  "id": 3338266728,
  "lat": 43.8741110,
  "lon": 11.0710527
},
{
  "type": "node",
  "id": 3338266729,
  "lat": 43.8741425,
  "lon": 11.0710596
},
{
  "type": "node",
  "id": 3338266730,
  "lat": 43.8741706,
  "lon": 11.0710805
},
{
  "type": "node",
  "id": 3338266731,
  "lat": 43.8741923,
  "lon": 11.0711131
},
{
  "type": "node",
  "id": 3338266733,
  "lat": 43.8740022,
  "lon": 11.0711371
},
{
  "type": "node",
  "id": 3338266734,
  "lat": 43.8739839,
  "lon": 11.0711688
},
{
  "type": "node",
  "id": 3338266735,
  "lat": 43.8739855,
  "lon": 11.0711854
},
{
  "type": "node",
  "id": 3338266736,
  "lat": 43.8739559,
  "lon": 11.0712006
},
{
  "type": "node",
  "id": 3338266737,
  "lat": 43.8739564,
  "lon": 11.0712107
},
{
  "type": "node",
  "id": 3338266738,
  "lat": 43.8739418,
  "lon": 11.0712338
},
{
  "type": "node",
  "id": 3338266739,
  "lat": 43.8739543,
  "lon": 11.0712872
},
{
  "type": "node",
  "id": 3338266740,
  "lat": 43.8739709,
  "lon": 11.0712843
},
{
  "type": "node",
  "id": 3338266741,
  "lat": 43.8739787,
  "lon": 11.0712995
},
{
  "type": "node",
  "id": 3338266742,
  "lat": 43.8740141,
  "lon": 11.0712886
},
{
  "type": "node",
  "id": 3338266743,
  "lat": 43.8740328,
  "lon": 11.0713175
},
{
  "type": "node",
  "id": 3338266744,
  "lat": 43.8741140,
  "lon": 11.0713853
},
{
  "type": "node",
  "id": 3338266745,
  "lat": 43.8741213,
  "lon": 11.0714149
},
{
  "type": "node",
  "id": 3338266746,
  "lat": 43.8741301,
  "lon": 11.0714113
},
{
  "type": "node",
  "id": 3338266747,
  "lat": 43.8741520,
  "lon": 11.0715001
},
{
  "type": "node",
  "id": 3338266748,
  "lat": 43.8741624,
  "lon": 11.0715376
},
{
  "type": "node",
  "id": 3338266749,
  "lat": 43.8742139,
  "lon": 11.0715196
},
{
  "type": "node",
  "id": 3338266750,
  "lat": 43.8742087,
  "lon": 11.0714792
},
{
  "type": "node",
  "id": 3338266751,
  "lat": 43.8742633,
  "lon": 11.0714618
},
{
  "type": "node",
  "id": 3338266752,
  "lat": 43.8742290,
  "lon": 11.0712951
},
{
  "type": "node",
  "id": 3338266753,
  "lat": 43.8741975,
  "lon": 11.0712441
},
{
  "type": "node",
  "id": 3338266724,
  "lat": 43.8740202,
  "lon": 11.0711447
},
{
  "type": "node",
  "id": 3726727428,
  "lat": 43.8742050,
  "lon": 11.0712230
},
{
  "type": "node",
  "id": 3325453272,
  "lat": 43.8779241,
  "lon": 11.0801697
},
{
  "type": "node",
  "id": 3325453273,
  "lat": 43.8778364,
  "lon": 11.0802363
},
{
  "type": "node",
  "id": 3325453274,
  "lat": 43.8778665,
  "lon": 11.0803125
},
{
  "type": "node",
  "id": 3325453275,
  "lat": 43.8777873,
  "lon": 11.0803726
},
{
  "type": "node",
  "id": 3325453276,
  "lat": 43.8778929,
  "lon": 11.0806400
},
{
  "type": "node",
  "id": 3325453277,
  "lat": 43.8780671,
  "lon": 11.0805076
},
{
  "type": "node",
  "id": 3325453278,
  "lat": 43.8780553,
  "lon": 11.0804778
},
{
  "type": "node",
  "id": 3325453279,
  "lat": 43.8780798,
  "lon": 11.0804592
},
{
  "type": "node",
  "id": 3325453280,
  "lat": 43.8780690,
  "lon": 11.0804319
},
{
  "type": "node",
  "id": 3325453281,
  "lat": 43.8780897,
  "lon": 11.0804161
},
{
  "type": "node",
  "id": 3325453282,
  "lat": 43.8780786,
  "lon": 11.0803880
},
{
  "type": "node",
  "id": 3325453283,
  "lat": 43.8780899,
  "lon": 11.0803794
},
{
  "type": "node",
  "id": 3325453284,
  "lat": 43.8780596,
  "lon": 11.0803026
},
{
  "type": "node",
  "id": 3325453285,
  "lat": 43.8780397,
  "lon": 11.0803177
},
{
  "type": "node",
  "id": 3325453286,
  "lat": 43.8780267,
  "lon": 11.0802850
},
{
  "type": "node",
  "id": 3325453287,
  "lat": 43.8780083,
  "lon": 11.0802990
},
{
  "type": "node",
  "id": 3325453288,
  "lat": 43.8779937,
  "lon": 11.0802622
},
{
  "type": "node",
  "id": 3325453289,
  "lat": 43.8779682,
  "lon": 11.0802816
},
{
  "type": "node",
  "id": 3172137361,
  "lat": 43.8862896,
  "lon": 11.0780088
},
{
  "type": "node",
  "id": 3172137375,
  "lat": 43.8864286,
  "lon": 11.0781278
},
{
  "type": "node",
  "id": 3172137384,
  "lat": 43.8864686,
  "lon": 11.0776064
},
{
  "type": "node",
  "id": 3172137385,
  "lat": 43.8866076,
  "lon": 11.0777254
},
{
  "type": "node",
  "id": 3284122323,
  "lat": 43.8959479,
  "lon": 11.0813003
},
{
  "type": "node",
  "id": 3284122324,
  "lat": 43.8958728,
  "lon": 11.0812323
},
{
  "type": "node",
  "id": 3284122325,
  "lat": 43.8958550,
  "lon": 11.0812701
},
{
  "type": "node",
  "id": 3284122326,
  "lat": 43.8958254,
  "lon": 11.0812433
},
{
  "type": "node",
  "id": 3284122327,
  "lat": 43.8958462,
  "lon": 11.0811990
},
{
  "type": "node",
  "id": 3284122328,
  "lat": 43.8957064,
  "lon": 11.0810724
},
{
  "type": "node",
  "id": 3284122329,
  "lat": 43.8956327,
  "lon": 11.0812292
},
{
  "type": "node",
  "id": 3284122330,
  "lat": 43.8957319,
  "lon": 11.0813190
},
{
  "type": "node",
  "id": 3284122331,
  "lat": 43.8957091,
  "lon": 11.0813675
},
{
  "type": "node",
  "id": 3284122332,
  "lat": 43.8958094,
  "lon": 11.0814584
},
{
  "type": "node",
  "id": 3284122333,
  "lat": 43.8958251,
  "lon": 11.0814250
},
{
  "type": "node",
  "id": 3284122334,
  "lat": 43.8958701,
  "lon": 11.0814657
},
{
  "type": "node",
  "id": 3302172425,
  "lat": 43.8952503,
  "lon": 11.0885170
},
{
  "type": "node",
  "id": 3302172426,
  "lat": 43.8952125,
  "lon": 11.0885105
},
{
  "type": "node",
  "id": 3302172427,
  "lat": 43.8951966,
  "lon": 11.0885124
},
{
  "type": "node",
  "id": 3302172428,
  "lat": 43.8952026,
  "lon": 11.0885013
},
{
  "type": "node",
  "id": 3302172429,
  "lat": 43.8951721,
  "lon": 11.0884627
},
{
  "type": "node",
  "id": 3302172430,
  "lat": 43.8951569,
  "lon": 11.0884388
},
{
  "type": "node",
  "id": 3302172431,
  "lat": 43.8951462,
  "lon": 11.0884176
},
{
  "type": "node",
  "id": 3302172432,
  "lat": 43.8951237,
  "lon": 11.0883956
},
{
  "type": "node",
  "id": 3302172433,
  "lat": 43.8951091,
  "lon": 11.0883891
},
{
  "type": "node",
  "id": 3302172434,
  "lat": 43.8950892,
  "lon": 11.0883772
},
{
  "type": "node",
  "id": 3302172435,
  "lat": 43.8950879,
  "lon": 11.0883615
},
{
  "type": "node",
  "id": 3302172436,
  "lat": 43.8950455,
  "lon": 11.0883845
},
{
  "type": "node",
  "id": 3302172437,
  "lat": 43.8950382,
  "lon": 11.0883579
},
{
  "type": "node",
  "id": 3302172438,
  "lat": 43.8949938,
  "lon": 11.0883919
},
{
  "type": "node",
  "id": 3302172439,
  "lat": 43.8949660,
  "lon": 11.0885105
},
{
  "type": "node",
  "id": 3302172440,
  "lat": 43.8950130,
  "lon": 11.0885280
},
{
  "type": "node",
  "id": 3302172441,
  "lat": 43.8950104,
  "lon": 11.0885400
},
{
  "type": "node",
  "id": 3302172442,
  "lat": 43.8950124,
  "lon": 11.0885575
},
{
  "type": "node",
  "id": 3302172443,
  "lat": 43.8950011,
  "lon": 11.0885602
},
{
  "type": "node",
  "id": 3302172444,
  "lat": 43.8950051,
  "lon": 11.0885841
},
{
  "type": "node",
  "id": 3302172445,
  "lat": 43.8950057,
  "lon": 11.0885924
},
{
  "type": "node",
  "id": 3302172446,
  "lat": 43.8949918,
  "lon": 11.0886163
},
{
  "type": "node",
  "id": 3302172447,
  "lat": 43.8950090,
  "lon": 11.0886402
},
{
  "type": "node",
  "id": 3302172448,
  "lat": 43.8950143,
  "lon": 11.0886770
},
{
  "type": "node",
  "id": 3302172460,
  "lat": 43.8951960,
  "lon": 11.0886798
},
{
  "type": "node",
  "id": 3302172661,
  "lat": 43.8952139,
  "lon": 11.0886577
},
{
  "type": "node",
  "id": 3302172662,
  "lat": 43.8952278,
  "lon": 11.0886412
},
{
  "type": "node",
  "id": 3302172663,
  "lat": 43.8952417,
  "lon": 11.0885988
},
{
  "type": "node",
  "id": 3302172664,
  "lat": 43.8952424,
  "lon": 11.0885657
},
{
  "type": "node",
  "id": 3302172665,
  "lat": 43.8952351,
  "lon": 11.0885427
},
{
  "type": "node",
  "id": 3302172666,
  "lat": 43.8952278,
  "lon": 11.0885391
},
{
  "type": "node",
  "id": 3302172667,
  "lat": 43.8952470,
  "lon": 11.0885455
},
{
  "type": "node",
  "id": 335606084,
  "lat": 43.8794592,
  "lon": 11.0982253
},
{
  "type": "node",
  "id": 484270883,
  "lat": 43.8794253,
  "lon": 11.0982784
},
{
  "type": "node",
  "id": 484270884,
  "lat": 43.8793956,
  "lon": 11.0982418
},
{
  "type": "node",
  "id": 484270885,
  "lat": 43.8792969,
  "lon": 11.0983962
},
{
  "type": "node",
  "id": 484270886,
  "lat": 43.8793258,
  "lon": 11.0984319
},
{
  "type": "node",
  "id": 2109063808,
  "lat": 43.8795504,
  "lon": 11.0984311
},
{
  "type": "node",
  "id": 2109063809,
  "lat": 43.8794592,
  "lon": 11.0985739
},
{
  "type": "node",
  "id": 2109063810,
  "lat": 43.8794120,
  "lon": 11.0985990
},
{
  "type": "node",
  "id": 2109063811,
  "lat": 43.8794417,
  "lon": 11.0985524
},
{
  "type": "node",
  "id": 2109063812,
  "lat": 43.8793040,
  "lon": 11.0984661
},
{
  "type": "node",
  "id": 2109063813,
  "lat": 43.8795568,
  "lon": 11.0983453
},
{
  "type": "node",
  "id": 2109063814,
  "lat": 43.8795233,
  "lon": 11.0983977
},
{
  "type": "node",
  "id": 2509129329,
  "lat": 43.8780047,
  "lon": 11.0991405
},
{
  "type": "node",
  "id": 2509129334,
  "lat": 43.8780418,
  "lon": 11.0990551
},
{
  "type": "node",
  "id": 2509129337,
  "lat": 43.8780549,
  "lon": 11.0991690
},
{
  "type": "node",
  "id": 2509129366,
  "lat": 43.8781718,
  "lon": 11.0992117
},
{
  "type": "node",
  "id": 2509129380,
  "lat": 43.8781934,
  "lon": 11.0991137
},
{
  "type": "node",
  "id": 2863014248,
  "lat": 43.8780592,
  "lon": 11.0990618
},
{
  "type": "node",
  "id": 2863014260,
  "lat": 43.8781502,
  "lon": 11.0992038
},
{
  "type": "node",
  "id": 2863014400,
  "lat": 43.8790605,
  "lon": 11.0971951
},
{
  "type": "node",
  "id": 2863014409,
  "lat": 43.8791647,
  "lon": 11.0969557
},
{
  "type": "node",
  "id": 1906808879,
  "lat": 43.8793964,
  "lon": 11.0968914
},
{
  "type": "node",
  "id": 1906808923,
  "lat": 43.8791919,
  "lon": 11.0973414
},
{
  "type": "node",
  "id": 3298592859,
  "lat": 43.8792819,
  "lon": 11.1017054
},
{
  "type": "node",
  "id": 3400214893,
  "lat": 43.8792478,
  "lon": 11.0967649
},
{
  "type": "node",
  "id": 1906808887,
  "lat": 43.8790086,
  "lon": 11.0973997
},
{
  "type": "node",
  "id": 1906808913,
  "lat": 43.8790391,
  "lon": 11.0974248
},
{
  "type": "node",
  "id": 1906808917,
  "lat": 43.8790382,
  "lon": 11.0974529
},
{
  "type": "node",
  "id": 1906808925,
  "lat": 43.8790921,
  "lon": 11.0974925
},
{
  "type": "node",
  "id": 1906808928,
  "lat": 43.8791022,
  "lon": 11.0974785
},
{
  "type": "node",
  "id": 1906808932,
  "lat": 43.8791662,
  "lon": 11.0975206
},
{
  "type": "node",
  "id": 1906808934,
  "lat": 43.8792284,
  "lon": 11.0973781
},
{
  "type": "node",
  "id": 3528031734,
  "lat": 43.8790847,
  "lon": 11.0972141
},
{
  "type": "node",
  "id": 1906808878,
  "lat": 43.8814161,
  "lon": 11.0945097
},
{
  "type": "node",
  "id": 1906808885,
  "lat": 43.8813811,
  "lon": 11.0944773
},
{
  "type": "node",
  "id": 1906808890,
  "lat": 43.8813658,
  "lon": 11.0945091
},
{
  "type": "node",
  "id": 1906808903,
  "lat": 43.8812796,
  "lon": 11.0944294
},
{
  "type": "node",
  "id": 1906808931,
  "lat": 43.8815393,
  "lon": 11.0938011
},
{
  "type": "node",
  "id": 1906808937,
  "lat": 43.8816896,
  "lon": 11.0939400
},
{
  "type": "node",
  "id": 1906808924,
  "lat": 43.8813305,
  "lon": 11.0943249
},
{
  "type": "node",
  "id": 2506172854,
  "lat": 43.8813023,
  "lon": 11.0943864
},
{
  "type": "node",
  "id": 2506174110,
  "lat": 43.8813006,
  "lon": 11.0942985
},
{
  "type": "node",
  "id": 2506174112,
  "lat": 43.8814831,
  "lon": 11.0939183
},
{
  "type": "node",
  "id": 2506175318,
  "lat": 43.8813267,
  "lon": 11.0946933
},
{
  "type": "node",
  "id": 2506175319,
  "lat": 43.8812668,
  "lon": 11.0946410
},
{
  "type": "node",
  "id": 2506175320,
  "lat": 43.8813421,
  "lon": 11.0944871
},
{
  "type": "node",
  "id": 2506175322,
  "lat": 43.8813262,
  "lon": 11.0945195
},
{
  "type": "node",
  "id": 2863086311,
  "lat": 43.8813689,
  "lon": 11.0946067
},
{
  "type": "node",
  "id": 2863086317,
  "lat": 43.8815568,
  "lon": 11.0938173
},
{
  "type": "node",
  "id": 2527792537,
  "lat": 43.8819641,
  "lon": 11.0937174
},
{
  "type": "node",
  "id": 2527792546,
  "lat": 43.8820272,
  "lon": 11.0935999
},
{
  "type": "node",
  "id": 3701939236,
  "lat": 43.8817330,
  "lon": 11.0935014
},
{
  "type": "node",
  "id": 3701939237,
  "lat": 43.8818098,
  "lon": 11.0933900
},
{
  "type": "node",
  "id": 3953372967,
  "lat": 43.8818940,
  "lon": 11.0934706
},
{
  "type": "node",
  "id": 3953372973,
  "lat": 43.8841044,
  "lon": 11.0938760
},
{
  "type": "node",
  "id": 3953372981,
  "lat": 43.8817889,
  "lon": 11.0933704
},
{
  "type": "node",
  "id": 3953372983,
  "lat": 43.8820243,
  "lon": 11.0932144
},
{
  "type": "node",
  "id": 3953372984,
  "lat": 43.8840678,
  "lon": 11.0939858
},
{
  "type": "node",
  "id": 3953372985,
  "lat": 43.8817796,
  "lon": 11.0933624
},
{
  "type": "node",
  "id": 3953372989,
  "lat": 43.8819052,
  "lon": 11.0931048
},
{
  "type": "node",
  "id": 3953372991,
  "lat": 43.8817923,
  "lon": 11.0934262
},
{
  "type": "node",
  "id": 3953372993,
  "lat": 43.8841709,
  "lon": 11.0939068
},
{
  "type": "node",
  "id": 3953373004,
  "lat": 43.8840394,
  "lon": 11.0940712
},
{
  "type": "node",
  "id": 3953373009,
  "lat": 43.8817785,
  "lon": 11.0934133
},
{
  "type": "node",
  "id": 3953373017,
  "lat": 43.8841039,
  "lon": 11.0941131
},
{
  "type": "node",
  "id": 1906808876,
  "lat": 43.8817100,
  "lon": 11.0983812
},
{
  "type": "node",
  "id": 1906808895,
  "lat": 43.8817490,
  "lon": 11.0980980
},
{
  "type": "node",
  "id": 1906808896,
  "lat": 43.8817213,
  "lon": 11.0983386
},
{
  "type": "node",
  "id": 1906808901,
  "lat": 43.8816980,
  "lon": 11.0980720
},
{
  "type": "node",
  "id": 1906808907,
  "lat": 43.8816380,
  "lon": 11.0982959
},
{
  "type": "node",
  "id": 1906808918,
  "lat": 43.8818106,
  "lon": 11.0983924
},
{
  "type": "node",
  "id": 1906808943,
  "lat": 43.8819096,
  "lon": 11.0981841
},
{
  "type": "node",
  "id": 1906808944,
  "lat": 43.8818011,
  "lon": 11.0984279
},
{
  "type": "node",
  "id": 1906808948,
  "lat": 43.8818948,
  "lon": 11.0984356
},
{
  "type": "node",
  "id": 1906808953,
  "lat": 43.8819555,
  "lon": 11.0982077
},
{
  "type": "node",
  "id": 2862897924,
  "lat": 43.8819185,
  "lon": 11.0981507
},
{
  "type": "node",
  "id": 2862897939,
  "lat": 43.8820208,
  "lon": 11.0977665
},
{
  "type": "node",
  "id": 278822226,
  "lat": 43.8816512,
  "lon": 11.0982442
},
{
  "type": "node",
  "id": 290263008,
  "lat": 43.8818623,
  "lon": 11.0976905
},
{
  "type": "node",
  "id": 484270874,
  "lat": 43.8817728,
  "lon": 11.0980080
},
{
  "type": "node",
  "id": 2508150611,
  "lat": 43.8843606,
  "lon": 11.0961852
},
{
  "type": "node",
  "id": 2508150621,
  "lat": 43.8847104,
  "lon": 11.0963259
},
{
  "type": "node",
  "id": 2508150624,
  "lat": 43.8846997,
  "lon": 11.0963489
},
{
  "type": "node",
  "id": 2508150628,
  "lat": 43.8848027,
  "lon": 11.0964837
},
{
  "type": "node",
  "id": 2508150634,
  "lat": 43.8847604,
  "lon": 11.0965860
},
{
  "type": "node",
  "id": 2508150635,
  "lat": 43.8843189,
  "lon": 11.0962820
},
{
  "type": "node",
  "id": 3219367956,
  "lat": 43.8847295,
  "lon": 11.0964091
},
{
  "type": "node",
  "id": 3219367959,
  "lat": 43.8847501,
  "lon": 11.0963593
},
{
  "type": "node",
  "id": 3219367960,
  "lat": 43.8843980,
  "lon": 11.0960968
},
{
  "type": "node",
  "id": 3953372972,
  "lat": 43.8846478,
  "lon": 11.0965506
},
{
  "type": "node",
  "id": 3953372974,
  "lat": 43.8845946,
  "lon": 11.0965077
},
{
  "type": "node",
  "id": 3953372976,
  "lat": 43.8847663,
  "lon": 11.0964385
},
{
  "type": "node",
  "id": 3953372986,
  "lat": 43.8846449,
  "lon": 11.0964740
},
{
  "type": "node",
  "id": 3953372987,
  "lat": 43.8847188,
  "lon": 11.0965529
},
{
  "type": "node",
  "id": 3953372990,
  "lat": 43.8846708,
  "lon": 11.0965693
},
{
  "type": "node",
  "id": 3953372995,
  "lat": 43.8846709,
  "lon": 11.0964948
},
{
  "type": "node",
  "id": 3953372997,
  "lat": 43.8846215,
  "lon": 11.0965298
},
{
  "type": "node",
  "id": 3953373001,
  "lat": 43.8843837,
  "lon": 11.0961300
},
{
  "type": "node",
  "id": 3953373007,
  "lat": 43.8847611,
  "lon": 11.0964506
},
{
  "type": "node",
  "id": 3953373008,
  "lat": 43.8846652,
  "lon": 11.0965095
},
{
  "type": "node",
  "id": 3953373012,
  "lat": 43.8843383,
  "lon": 11.0962363
},
{
  "type": "node",
  "id": 3953373014,
  "lat": 43.8846408,
  "lon": 11.0964839
},
{
  "type": "node",
  "id": 3953373016,
  "lat": 43.8846882,
  "lon": 11.0965283
},
{
  "type": "node",
  "id": 2863014315,
  "lat": 43.8784621,
  "lon": 11.1021648
},
{
  "type": "node",
  "id": 2863014325,
  "lat": 43.8785645,
  "lon": 11.1021999
},
{
  "type": "node",
  "id": 2863014329,
  "lat": 43.8785796,
  "lon": 11.1021726
},
{
  "type": "node",
  "id": 2863014336,
  "lat": 43.8786351,
  "lon": 11.1020726
},
{
  "type": "node",
  "id": 3298592858,
  "lat": 43.8794240,
  "lon": 11.1018878
},
{
  "type": "node",
  "id": 3298592860,
  "lat": 43.8791147,
  "lon": 11.1019388
},
{
  "type": "node",
  "id": 3298598261,
  "lat": 43.8792539,
  "lon": 11.1021292
},
{
  "type": "node",
  "id": 3225479282,
  "lat": 43.8783965,
  "lon": 11.1019279
},
{
  "type": "node",
  "id": 3312994157,
  "lat": 43.8783829,
  "lon": 11.1019522
},
{
  "type": "node",
  "id": 3312994158,
  "lat": 43.8784243,
  "lon": 11.1019974
},
{
  "type": "node",
  "id": 3312994361,
  "lat": 43.8783866,
  "lon": 11.1018777
},
{
  "type": "node",
  "id": 3312994362,
  "lat": 43.8784105,
  "lon": 11.1019053
},
{
  "type": "node",
  "id": 3312994363,
  "lat": 43.8784901,
  "lon": 11.1020699
},
{
  "type": "node",
  "id": 3312994364,
  "lat": 43.8784503,
  "lon": 11.1021483
},
{
  "type": "node",
  "id": 3312994365,
  "lat": 43.8785367,
  "lon": 11.1022491
},
{
  "type": "node",
  "id": 3312994366,
  "lat": 43.8784547,
  "lon": 11.1018466
},
{
  "type": "node",
  "id": 3312994367,
  "lat": 43.8784471,
  "lon": 11.1018611
},
{
  "type": "node",
  "id": 3312994368,
  "lat": 43.8784184,
  "lon": 11.1018264
},
{
  "type": "node",
  "id": 2863248238,
  "lat": 43.8860656,
  "lon": 11.1023993
},
{
  "type": "node",
  "id": 2863248239,
  "lat": 43.8861524,
  "lon": 11.1024187
},
{
  "type": "node",
  "id": 2863248240,
  "lat": 43.8861377,
  "lon": 11.1025506
},
{
  "type": "node",
  "id": 2863248241,
  "lat": 43.8860488,
  "lon": 11.1025302
},
{
  "type": "node",
  "id": 3285417287,
  "lat": 43.8829556,
  "lon": 11.1062700
},
{
  "type": "node",
  "id": 3285417288,
  "lat": 43.8830465,
  "lon": 11.1064926
},
{
  "type": "node",
  "id": 3285417289,
  "lat": 43.8832755,
  "lon": 11.1063075
},
{
  "type": "node",
  "id": 3285417290,
  "lat": 43.8831779,
  "lon": 11.1060769
},
{
  "type": "node",
  "id": 3152940786,
  "lat": 43.8846893,
  "lon": 11.1095760
},
{
  "type": "node",
  "id": 3152940787,
  "lat": 43.8847988,
  "lon": 11.1098250
},
{
  "type": "node",
  "id": 3152940788,
  "lat": 43.8846976,
  "lon": 11.1099106
},
{
  "type": "node",
  "id": 3152940789,
  "lat": 43.8845882,
  "lon": 11.1096616
},
{
  "type": "node",
  "id": 3302435957,
  "lat": 43.8828613,
  "lon": 11.1131641
},
{
  "type": "node",
  "id": 3302435958,
  "lat": 43.8829181,
  "lon": 11.1132275
},
{
  "type": "node",
  "id": 3302435959,
  "lat": 43.8829580,
  "lon": 11.1131587
},
{
  "type": "node",
  "id": 3302435960,
  "lat": 43.8829913,
  "lon": 11.1131958
},
{
  "type": "node",
  "id": 3302435961,
  "lat": 43.8830531,
  "lon": 11.1130891
},
{
  "type": "node",
  "id": 3302435962,
  "lat": 43.8829585,
  "lon": 11.1129836
},
{
  "type": "node",
  "id": 3302435963,
  "lat": 43.8829438,
  "lon": 11.1130090
},
{
  "type": "node",
  "id": 3302435964,
  "lat": 43.8829258,
  "lon": 11.1129890
},
{
  "type": "node",
  "id": 3302435965,
  "lat": 43.8828801,
  "lon": 11.1130678
},
{
  "type": "node",
  "id": 3302435966,
  "lat": 43.8829026,
  "lon": 11.1130928
},
{
  "type": "node",
  "id": 3302435971,
  "lat": 43.8831274,
  "lon": 11.1127272
},
{
  "type": "node",
  "id": 3302435972,
  "lat": 43.8831741,
  "lon": 11.1127950
},
{
  "type": "node",
  "id": 3302435973,
  "lat": 43.8831885,
  "lon": 11.1127873
},
{
  "type": "node",
  "id": 3302435974,
  "lat": 43.8832041,
  "lon": 11.1128150
},
{
  "type": "node",
  "id": 3302435975,
  "lat": 43.8831841,
  "lon": 11.1128443
},
{
  "type": "node",
  "id": 3302435976,
  "lat": 43.8832962,
  "lon": 11.1129737
},
{
  "type": "node",
  "id": 3302435977,
  "lat": 43.8833917,
  "lon": 11.1128566
},
{
  "type": "node",
  "id": 3302435978,
  "lat": 43.8834750,
  "lon": 11.1130060
},
{
  "type": "node",
  "id": 3302435979,
  "lat": 43.8830997,
  "lon": 11.1134744
},
{
  "type": "node",
  "id": 3302435980,
  "lat": 43.8830708,
  "lon": 11.1134235
},
{
  "type": "node",
  "id": 3302435981,
  "lat": 43.8830941,
  "lon": 11.1133542
},
{
  "type": "node",
  "id": 3302172449,
  "lat": 43.8950356,
  "lon": 11.0886991
},
{
  "type": "node",
  "id": 3302172450,
  "lat": 43.8950654,
  "lon": 11.0887230
},
{
  "type": "node",
  "id": 3302172451,
  "lat": 43.8950839,
  "lon": 11.0887322
},
{
  "type": "node",
  "id": 3302172452,
  "lat": 43.8951224,
  "lon": 11.0887276
},
{
  "type": "node",
  "id": 3302172453,
  "lat": 43.8951396,
  "lon": 11.0887267
},
{
  "type": "node",
  "id": 3302172454,
  "lat": 43.8951482,
  "lon": 11.0887322
},
{
  "type": "node",
  "id": 3302172455,
  "lat": 43.8951588,
  "lon": 11.0887571
},
{
  "type": "node",
  "id": 3302172456,
  "lat": 43.8951761,
  "lon": 11.0887469
},
{
  "type": "node",
  "id": 3302172457,
  "lat": 43.8951860,
  "lon": 11.0887414
},
{
  "type": "node",
  "id": 3302172458,
  "lat": 43.8951767,
  "lon": 11.0887101
},
{
  "type": "node",
  "id": 3302172459,
  "lat": 43.8951820,
  "lon": 11.0886936
},
{
  "type": "node",
  "id": 2756339025,
  "lat": 43.8943547,
  "lon": 11.0955305
},
{
  "type": "node",
  "id": 2756339026,
  "lat": 43.8944680,
  "lon": 11.0957362
},
{
  "type": "node",
  "id": 2756339027,
  "lat": 43.8944860,
  "lon": 11.0957171
},
{
  "type": "node",
  "id": 2756339028,
  "lat": 43.8945143,
  "lon": 11.0957686
},
{
  "type": "node",
  "id": 2756339029,
  "lat": 43.8945654,
  "lon": 11.0957144
},
{
  "type": "node",
  "id": 2756339030,
  "lat": 43.8946059,
  "lon": 11.0957879
},
{
  "type": "node",
  "id": 2756339031,
  "lat": 43.8946370,
  "lon": 11.0957548
},
{
  "type": "node",
  "id": 2756339032,
  "lat": 43.8946034,
  "lon": 11.0956938
},
{
  "type": "node",
  "id": 2756339033,
  "lat": 43.8946542,
  "lon": 11.0956399
},
{
  "type": "node",
  "id": 2756339034,
  "lat": 43.8946222,
  "lon": 11.0955817
},
{
  "type": "node",
  "id": 2756339035,
  "lat": 43.8946414,
  "lon": 11.0955614
},
{
  "type": "node",
  "id": 2756339036,
  "lat": 43.8945250,
  "lon": 11.0953499
},
{
  "type": "node",
  "id": 3276516323,
  "lat": 43.8972114,
  "lon": 11.1012588
},
{
  "type": "node",
  "id": 3276516324,
  "lat": 43.8972646,
  "lon": 11.1010423
},
{
  "type": "node",
  "id": 3276516334,
  "lat": 43.8971987,
  "lon": 11.1010166
},
{
  "type": "node",
  "id": 3276516335,
  "lat": 43.8971560,
  "lon": 11.1012171
},
{
  "type": "node",
  "id": 3219343465,
  "lat": 43.8883554,
  "lon": 11.1079937
},
{
  "type": "node",
  "id": 3219343466,
  "lat": 43.8883568,
  "lon": 11.1079008
},
{
  "type": "node",
  "id": 3219343467,
  "lat": 43.8883098,
  "lon": 11.1078158
},
{
  "type": "node",
  "id": 3219343468,
  "lat": 43.8882513,
  "lon": 11.1077920
},
{
  "type": "node",
  "id": 3219343469,
  "lat": 43.8882228,
  "lon": 11.1078098
},
{
  "type": "node",
  "id": 3219343470,
  "lat": 43.8882043,
  "lon": 11.1077802
},
{
  "type": "node",
  "id": 3219343471,
  "lat": 43.8881829,
  "lon": 11.1077762
},
{
  "type": "node",
  "id": 3219343472,
  "lat": 43.8881658,
  "lon": 11.1077960
},
{
  "type": "node",
  "id": 3219343473,
  "lat": 43.8881630,
  "lon": 11.1078257
},
{
  "type": "node",
  "id": 3219343474,
  "lat": 43.8881245,
  "lon": 11.1078533
},
{
  "type": "node",
  "id": 3219343475,
  "lat": 43.8880860,
  "lon": 11.1079047
},
{
  "type": "node",
  "id": 3219343476,
  "lat": 43.8880647,
  "lon": 11.1079502
},
{
  "type": "node",
  "id": 3219343477,
  "lat": 43.8880504,
  "lon": 11.1079957
},
{
  "type": "node",
  "id": 3219343478,
  "lat": 43.8880533,
  "lon": 11.1080491
},
{
  "type": "node",
  "id": 3219343479,
  "lat": 43.8880789,
  "lon": 11.1080787
},
{
  "type": "node",
  "id": 3219343480,
  "lat": 43.8881145,
  "lon": 11.1081005
},
{
  "type": "node",
  "id": 3219343481,
  "lat": 43.8881630,
  "lon": 11.1081143
},
{
  "type": "node",
  "id": 3219343482,
  "lat": 43.8882114,
  "lon": 11.1081222
},
{
  "type": "node",
  "id": 3219343483,
  "lat": 43.8882585,
  "lon": 11.1081163
},
{
  "type": "node",
  "id": 3219343484,
  "lat": 43.8882912,
  "lon": 11.1081064
},
{
  "type": "node",
  "id": 3219343485,
  "lat": 43.8883340,
  "lon": 11.1080530
},
{
  "type": "node",
  "id": 2700276302,
  "lat": 43.9090303,
  "lon": 11.0918946
},
{
  "type": "node",
  "id": 2700276305,
  "lat": 43.9090229,
  "lon": 11.0920038
},
{
  "type": "node",
  "id": 2700276307,
  "lat": 43.9091040,
  "lon": 11.0920566
},
{
  "type": "node",
  "id": 2700276309,
  "lat": 43.9090143,
  "lon": 11.0921982
},
{
  "type": "node",
  "id": 2700276311,
  "lat": 43.9089676,
  "lon": 11.0920976
},
{
  "type": "node",
  "id": 2700276313,
  "lat": 43.9088964,
  "lon": 11.0921129
},
{
  "type": "node",
  "id": 2700276315,
  "lat": 43.9088902,
  "lon": 11.0922442
},
{
  "type": "node",
  "id": 2700276317,
  "lat": 43.9087637,
  "lon": 11.0921828
},
{
  "type": "node",
  "id": 2700276319,
  "lat": 43.9087870,
  "lon": 11.0921385
},
{
  "type": "node",
  "id": 2700276321,
  "lat": 43.9087157,
  "lon": 11.0920072
},
{
  "type": "node",
  "id": 2700276323,
  "lat": 43.9087280,
  "lon": 11.0918639
},
{
  "type": "node",
  "id": 2700276325,
  "lat": 43.9087022,
  "lon": 11.0918418
},
{
  "type": "node",
  "id": 2700276327,
  "lat": 43.9087833,
  "lon": 11.0916866
},
{
  "type": "node",
  "id": 2700276329,
  "lat": 43.9088411,
  "lon": 11.0918008
},
{
  "type": "node",
  "id": 2700276331,
  "lat": 43.9089062,
  "lon": 11.0917650
},
{
  "type": "node",
  "id": 2700276333,
  "lat": 43.9089860,
  "lon": 11.0918059
},
{
  "type": "node",
  "id": 296200653,
  "lat": 43.9002987,
  "lon": 11.1037816
},
{
  "type": "node",
  "id": 296200987,
  "lat": 43.9003563,
  "lon": 11.1038312
},
{
  "type": "node",
  "id": 3394957976,
  "lat": 43.9005868,
  "lon": 11.1038011
},
{
  "type": "node",
  "id": 3394957977,
  "lat": 43.9005294,
  "lon": 11.1037533
},
{
  "type": "node",
  "id": 3394957978,
  "lat": 43.9005167,
  "lon": 11.1037834
},
{
  "type": "node",
  "id": 3394957979,
  "lat": 43.9003600,
  "lon": 11.1036549
},
{
  "type": "node",
  "id": 3394957980,
  "lat": 43.9004325,
  "lon": 11.1038967
},
{
  "type": "node",
  "id": 3394957981,
  "lat": 43.9004848,
  "lon": 11.1039444
},
{
  "type": "node",
  "id": 3394957982,
  "lat": 43.9005486,
  "lon": 11.1038188
},
{
  "type": "node",
  "id": 3394957983,
  "lat": 43.9005715,
  "lon": 11.1038365
},
{
  "type": "node",
  "id": 3527140633,
  "lat": 43.9063966,
  "lon": 11.1129381
},
{
  "type": "node",
  "id": 3527140634,
  "lat": 43.9064346,
  "lon": 11.1126897
},
{
  "type": "node",
  "id": 3527140635,
  "lat": 43.9064601,
  "lon": 11.1126972
},
{
  "type": "node",
  "id": 3527140636,
  "lat": 43.9064913,
  "lon": 11.1124928
},
{
  "type": "node",
  "id": 3527140637,
  "lat": 43.9065264,
  "lon": 11.1129763
},
{
  "type": "node",
  "id": 3527140638,
  "lat": 43.9065347,
  "lon": 11.1129222
},
{
  "type": "node",
  "id": 3527140639,
  "lat": 43.9066358,
  "lon": 11.1125707
},
{
  "type": "node",
  "id": 3527140640,
  "lat": 43.9066409,
  "lon": 11.1125369
},
{
  "type": "node",
  "id": 3527140641,
  "lat": 43.9066717,
  "lon": 11.1125813
},
{
  "type": "node",
  "id": 3527140642,
  "lat": 43.9066829,
  "lon": 11.1125079
},
{
  "type": "node",
  "id": 3527140643,
  "lat": 43.9067255,
  "lon": 11.1129784
},
{
  "type": "node",
  "id": 3527140644,
  "lat": 43.9067925,
  "lon": 11.1125402
},
{
  "type": "node",
  "id": 2813075506,
  "lat": 43.9356116,
  "lon": 11.1068548
},
{
  "type": "node",
  "id": 2813075509,
  "lat": 43.9357117,
  "lon": 11.1066802
},
{
  "type": "node",
  "id": 2813075515,
  "lat": 43.9355668,
  "lon": 11.1067928
},
{
  "type": "node",
  "id": 2813075522,
  "lat": 43.9356866,
  "lon": 11.1066426
},
{
  "type": "node",
  "id": 2552144121,
  "lat": 43.8547189,
  "lon": 11.1207268
},
{
  "type": "node",
  "id": 2552144134,
  "lat": 43.8547968,
  "lon": 11.1203816
},
{
  "type": "node",
  "id": 2552144138,
  "lat": 43.8548367,
  "lon": 11.1207779
},
{
  "type": "node",
  "id": 2552144140,
  "lat": 43.8548625,
  "lon": 11.1206636
},
{
  "type": "node",
  "id": 2552144144,
  "lat": 43.8548727,
  "lon": 11.1206058
},
{
  "type": "node",
  "id": 2552144148,
  "lat": 43.8548913,
  "lon": 11.1206761
},
{
  "type": "node",
  "id": 2552144150,
  "lat": 43.8549041,
  "lon": 11.1206194
},
{
  "type": "node",
  "id": 2552144169,
  "lat": 43.8549120,
  "lon": 11.1204316
},
{
  "type": "node",
  "id": 3227038531,
  "lat": 43.8690085,
  "lon": 11.1250019
},
{
  "type": "node",
  "id": 3227038532,
  "lat": 43.8690109,
  "lon": 11.1250274
},
{
  "type": "node",
  "id": 3227038533,
  "lat": 43.8690294,
  "lon": 11.1250488
},
{
  "type": "node",
  "id": 3227038534,
  "lat": 43.8690461,
  "lon": 11.1249368
},
{
  "type": "node",
  "id": 3227038535,
  "lat": 43.8690500,
  "lon": 11.1250458
},
{
  "type": "node",
  "id": 3227038536,
  "lat": 43.8690961,
  "lon": 11.1248511
},
{
  "type": "node",
  "id": 3227038537,
  "lat": 43.8691356,
  "lon": 11.1248998
},
{
  "type": "node",
  "id": 3266697198,
  "lat": 43.8621373,
  "lon": 11.1388808
},
{
  "type": "node",
  "id": 3266697199,
  "lat": 43.8621754,
  "lon": 11.1388243
},
{
  "type": "node",
  "id": 3266697200,
  "lat": 43.8622022,
  "lon": 11.1388314
},
{
  "type": "node",
  "id": 3266697201,
  "lat": 43.8622276,
  "lon": 11.1389090
},
{
  "type": "node",
  "id": 3266697202,
  "lat": 43.8622581,
  "lon": 11.1388879
},
{
  "type": "node",
  "id": 3266697203,
  "lat": 43.8622683,
  "lon": 11.1389073
},
{
  "type": "node",
  "id": 3266697204,
  "lat": 43.8623167,
  "lon": 11.1388755
},
{
  "type": "node",
  "id": 3266697205,
  "lat": 43.8623625,
  "lon": 11.1390132
},
{
  "type": "node",
  "id": 3266697206,
  "lat": 43.8622594,
  "lon": 11.1390855
},
{
  "type": "node",
  "id": 3266697207,
  "lat": 43.8622162,
  "lon": 11.1391685
},
{
  "type": "node",
  "id": 3266697208,
  "lat": 43.8622416,
  "lon": 11.1392832
},
{
  "type": "node",
  "id": 3266697209,
  "lat": 43.8620075,
  "lon": 11.1394932
},
{
  "type": "node",
  "id": 3266697210,
  "lat": 43.8619375,
  "lon": 11.1394455
},
{
  "type": "node",
  "id": 3266697211,
  "lat": 43.8619172,
  "lon": 11.1394137
},
{
  "type": "node",
  "id": 3266697212,
  "lat": 43.8619032,
  "lon": 11.1393608
},
{
  "type": "node",
  "id": 3266697213,
  "lat": 43.8619082,
  "lon": 11.1392408
},
{
  "type": "node",
  "id": 3266697214,
  "lat": 43.8621449,
  "lon": 11.1391120
},
{
  "type": "node",
  "id": 3266697215,
  "lat": 43.8621385,
  "lon": 11.1390890
},
{
  "type": "node",
  "id": 3266697216,
  "lat": 43.8621818,
  "lon": 11.1390167
},
{
  "type": "node",
  "id": 3388224138,
  "lat": 43.8674263,
  "lon": 11.1432601
},
{
  "type": "node",
  "id": 3388224139,
  "lat": 43.8673715,
  "lon": 11.1433167
},
{
  "type": "node",
  "id": 3388224140,
  "lat": 43.8674340,
  "lon": 11.1435238
},
{
  "type": "node",
  "id": 3388224141,
  "lat": 43.8675207,
  "lon": 11.1433893
},
{
  "type": "node",
  "id": 3285417346,
  "lat": 43.8739471,
  "lon": 11.1175349
},
{
  "type": "node",
  "id": 3285417347,
  "lat": 43.8738900,
  "lon": 11.1174516
},
{
  "type": "node",
  "id": 3285417348,
  "lat": 43.8738577,
  "lon": 11.1174963
},
{
  "type": "node",
  "id": 3285417349,
  "lat": 43.8737449,
  "lon": 11.1174089
},
{
  "type": "node",
  "id": 3285417350,
  "lat": 43.8737508,
  "lon": 11.1173621
},
{
  "type": "node",
  "id": 3285417351,
  "lat": 43.8736672,
  "lon": 11.1173499
},
{
  "type": "node",
  "id": 3285417352,
  "lat": 43.8736790,
  "lon": 11.1174109
},
{
  "type": "node",
  "id": 3285417353,
  "lat": 43.8735984,
  "lon": 11.1174252
},
{
  "type": "node",
  "id": 3285417354,
  "lat": 43.8735778,
  "lon": 11.1174922
},
{
  "type": "node",
  "id": 3285417355,
  "lat": 43.8735734,
  "lon": 11.1177138
},
{
  "type": "node",
  "id": 3285417356,
  "lat": 43.8736892,
  "lon": 11.1178378
},
{
  "type": "node",
  "id": 3285417357,
  "lat": 43.8737903,
  "lon": 11.1178927
},
{
  "type": "node",
  "id": 3285417358,
  "lat": 43.8738401,
  "lon": 11.1179577
},
{
  "type": "node",
  "id": 3285417359,
  "lat": 43.8738812,
  "lon": 11.1179537
},
{
  "type": "node",
  "id": 3285417360,
  "lat": 43.8738944,
  "lon": 11.1176935
},
{
  "type": "node",
  "id": 3285417361,
  "lat": 43.8739134,
  "lon": 11.1177016
},
{
  "type": "node",
  "id": 3285417362,
  "lat": 43.8739134,
  "lon": 11.1175512
},
{
  "type": "node",
  "id": 3317552927,
  "lat": 43.8774897,
  "lon": 11.1196828
},
{
  "type": "node",
  "id": 3317552928,
  "lat": 43.8775303,
  "lon": 11.1195889
},
{
  "type": "node",
  "id": 3317552929,
  "lat": 43.8775400,
  "lon": 11.1195997
},
{
  "type": "node",
  "id": 3317552930,
  "lat": 43.8775874,
  "lon": 11.1195031
},
{
  "type": "node",
  "id": 3317552931,
  "lat": 43.8775226,
  "lon": 11.1194334
},
{
  "type": "node",
  "id": 3317552932,
  "lat": 43.8774192,
  "lon": 11.1196386
},
{
  "type": "node",
  "id": 3317552933,
  "lat": 43.8774404,
  "lon": 11.1196614
},
{
  "type": "node",
  "id": 3317552934,
  "lat": 43.8774443,
  "lon": 11.1196842
},
{
  "type": "node",
  "id": 3317552935,
  "lat": 43.8774530,
  "lon": 11.1196909
},
{
  "type": "node",
  "id": 3317552936,
  "lat": 43.8774636,
  "lon": 11.1196962
},
{
  "type": "node",
  "id": 3317552937,
  "lat": 43.8774781,
  "lon": 11.1196922
},
{
  "type": "node",
  "id": 3317552938,
  "lat": 43.8775656,
  "lon": 11.1195474
},
{
  "type": "node",
  "id": 3280348458,
  "lat": 43.8919307,
  "lon": 11.1166552
},
{
  "type": "node",
  "id": 3280348459,
  "lat": 43.8917969,
  "lon": 11.1165375
},
{
  "type": "node",
  "id": 3280348460,
  "lat": 43.8917027,
  "lon": 11.1167435
},
{
  "type": "node",
  "id": 3280351361,
  "lat": 43.8917666,
  "lon": 11.1167997
},
{
  "type": "node",
  "id": 3280351362,
  "lat": 43.8917275,
  "lon": 11.1168854
},
{
  "type": "node",
  "id": 3280351363,
  "lat": 43.8917737,
  "lon": 11.1169261
},
{
  "type": "node",
  "id": 3280351364,
  "lat": 43.8917969,
  "lon": 11.1168754
},
{
  "type": "node",
  "id": 3280351365,
  "lat": 43.8918206,
  "lon": 11.1168962
},
{
  "type": "node",
  "id": 3280351366,
  "lat": 43.8918583,
  "lon": 11.1168137
},
{
  "type": "node",
  "id": 2208693767,
  "lat": 43.8920906,
  "lon": 11.1316353
},
{
  "type": "node",
  "id": 2208693772,
  "lat": 43.8921179,
  "lon": 11.1317130
},
{
  "type": "node",
  "id": 2208693773,
  "lat": 43.8921236,
  "lon": 11.1316130
},
{
  "type": "node",
  "id": 2208693774,
  "lat": 43.8921508,
  "lon": 11.1316907
},
{
  "type": "node",
  "id": 2813040007,
  "lat": 43.9002268,
  "lon": 11.1208799
},
{
  "type": "node",
  "id": 2813040008,
  "lat": 43.9000085,
  "lon": 11.1209910
},
{
  "type": "node",
  "id": 2813040011,
  "lat": 43.9001988,
  "lon": 11.1210510
},
{
  "type": "node",
  "id": 2813040014,
  "lat": 43.9000365,
  "lon": 11.1208199
},
{
  "type": "node",
  "id": 3314541900,
  "lat": 43.9105524,
  "lon": 11.1234421
},
{
  "type": "node",
  "id": 3314541901,
  "lat": 43.9104948,
  "lon": 11.1234507
},
{
  "type": "node",
  "id": 3314541902,
  "lat": 43.9105080,
  "lon": 11.1236225
},
{
  "type": "node",
  "id": 3314541903,
  "lat": 43.9105657,
  "lon": 11.1236139
},
{
  "type": "node",
  "id": 3314541908,
  "lat": 43.9105040,
  "lon": 11.1235709
},
{
  "type": "node",
  "id": 738093172,
  "lat": 43.9004723,
  "lon": 11.1437891
},
{
  "type": "node",
  "id": 738093187,
  "lat": 43.9005567,
  "lon": 11.1438959
},
{
  "type": "node",
  "id": 738093190,
  "lat": 43.9005743,
  "lon": 11.1436340
},
{
  "type": "node",
  "id": 738093194,
  "lat": 43.9006586,
  "lon": 11.1437409
},
{
  "type": "way",
  "id": 315770433,
  "nodes": [
    3219040242,
    4053466774,
    4053466772,
    4053466773,
    4053466775,
    3219040243,
    4053466762,
    4053466764,
    4053466765,
    4053466763,
    4053466761,
    4053466760,
    4053466759,
    3219040244,
    3219040245,
    4053466770,
    4053466771,
    3219040242
  ]
},
{
  "type": "way",
  "id": 402949239,
  "nodes": [
    4053466768,
    4053466769,
    4053466767,
    4053466766,
    4053466768
  ]
},
{
  "type": "way",
  "id": 315804458,
  "nodes": [
    2508150611,
    3953373001,
    3219367960,
    2508150624,
    2508150621,
    3219367959,
    3219367956,
    3953372976,
    3953373007,
    2508150628,
    2508150634,
    3953372987,
    3953373016,
    3953372990,
    3953372972,
    3953373008,
    3953372995,
    3953372986,
    3953373014,
    3953372997,
    3953372974,
    2508150635,
    3953373012,
    2508150611
  ]
},
{
  "type": "way",
  "id": 323452615,
  "nodes": [
    3302435981,
    3302435960,
    3302435961,
    3302435962,
    3302435971,
    3302435972,
    3302435973,
    3302435974,
    3302435975,
    3302435976
  ]
},
{
  "type": "way",
  "id": 323452616,
  "nodes": [
    3302435976,
    3302435977,
    3302435978,
    3302435979,
    3302435980,
    3302435981
  ]
},
{
  "type": "way",
  "id": 248419238,
  "nodes": [
    2552144148,
    2552144150,
    2552144144,
    2552144169
  ]
},
{
  "type": "way",
  "id": 248419243,
  "nodes": [
    2552144169,
    2552144134,
    2552144121,
    2552144138,
    2552144140,
    2552144148
  ]
}

  ]
}
